<?xml version='1.0' encoding='utf-8'?>
<osm version="0.6" generator="OSM Conflator 1.4.1"><changeset><tag k="source" v="https://www.swisstopo.admin.ch/de/landschaftsmodell-swissnames3d" /><tag k="created_by" v="OSM Conflator 1.4.1" /><tag k="type" v="import" /></changeset><node id="1372736856" version="2" lat="46.4743667" lon="9.5623608" action="modify"><tag k="alt_name" v="Fuorcla Bercla" /><tag k="ele" v="2916" /><tag k="name" v="Fuorcla Bercla" /><tag k="natural" v="saddle" /></node><node id="6785132443" version="1" lat="46.4247833" lon="8.3184743" action="modify"><tag k="ele" v="3089" /><tag k="name" v="Rothornpass" /><tag k="name:it" v="Gran sella del Gries" /><tag k="natural" v="saddle" /></node><node id="1572894981" version="3" lat="46.8625342" lon="9.6957995" action="modify"><tag k="ele" v="2209" /><tag k="mountain_pass" v="yes" /><tag k="name" v="Faninpass" /><tag k="natural" v="saddle" /></node><node id="1432793707" version="5" lat="46.7704236" lon="9.7318907" action="modify"><tag k="ele" v="2434" /><tag k="mountain_pass" v="yes" /><tag k="name" v="Maiafelder Furgga" /><tag k="natural" v="saddle" /><tag k="wikidata" v="Q1699515" /><tag k="wikipedia" v="de:Maienfelder Furgga" /></node><node id="1841455738" version="4" lat="47.255168" lon="7.5083024" action="modify"><tag k="ele" v="1258" /><tag k="mountain_pass" v="yes" /><tag k="name" v="Weissenstein" /><tag k="natural" v="saddle" /></node><node id="448443738" version="8" lat="46.5555965" lon="8.8324298" action="modify"><tag k="ele" v="2433" /><tag k="mountain_pass" v="yes" /><tag k="name" v="Passo di Gana Negra" /><tag k="natural" v="saddle" /><tag k="tourism" v="viewpoint" /></node><node id="6558684889" version="1" lat="46.4436126" lon="7.7782077" action="modify"><tag k="ele" v="3092" /><tag k="name" v="Tennbachlücke" /><tag k="natural" v="saddle" /><tag k="wikidata" v="Q28854649" /><tag k="wikipedia" v="de:Tennbachlücke" /></node><node id="1864946230" version="2" lat="46.4555833" lon="6.087031" action="modify"><tag k="ele" v="1226" /><tag k="name" v="Col de la Givrine" /><tag k="natural" v="saddle" /><tag k="wikidata" v="Q391854" /><tag k="wikimedia_commons" v="Category:Col de la Givrine" /><tag k="wikipedia" v="fr:Col de la Givrine" /></node><node id="5857182549" version="3" lat="46.6736049" lon="8.665139" action="modify"><tag k="ele" v="2477" /><tag k="mountain_pass" v="yes" /><tag k="name" v="Fellilücke" /><tag k="natural" v="saddle" /><tag k="wikidata" v="Q29015665" /><tag k="wikipedia" v="de:Fellilücke" /></node><node id="477447052" version="3" lat="46.9441861" lon="9.8765702" action="modify"><tag k="ele" v="2408" /><tag k="mountain_pass" v="yes" /><tag k="name" v="Gafierjoch" /><tag k="natural" v="saddle" /></node><node id="293999028" version="4" lat="47.0387021" lon="8.8880034" action="modify"><tag k="ele" v="1570" /><tag k="mountain_pass" v="yes" /><tag k="name" v="Schwialppass" /><tag k="natural" v="saddle" /><tag k="wikidata" v="Q1416815" /><tag k="wikipedia" v="de:Schwialppass" /></node><node id="6753681894" version="2" lat="46.4162535" lon="7.7167206" action="modify"><tag k="alt_name" v="Lötschberg" /><tag k="ele" v="2684" /><tag k="mountain_pass" v="yes" /><tag k="name" v="Lötschepass" /><tag k="natural" v="saddle" /><tag k="wikidata" v="Q870342" /><tag k="wikipedia" v="de:Lötschberg" /></node><node id="11776426737" version="1" lat="46.6291177" lon="8.1520419" action="modify"><tag k="name" v="Westliche Wätterlimi" /><tag k="natural" v="saddle" /><tag k="ele" v="3216" /></node><node id="3434790393" version="1" lat="46.9171233" lon="9.8728188" action="modify"><tag k="ele" v="2355" /><tag k="name" v="Schaffürggli" /><tag k="natural" v="saddle" /></node><node id="3442801114" version="2" lat="46.4530385" lon="7.4948938" action="modify"><tag k="ele" v="1936" /><tag k="name" v="Hahnenmoospass" /><tag k="natural" v="saddle" /><tag k="wikidata" v="Q1568931" /><tag k="wikipedia" v="de:Hahnenmoospass" /></node><node id="7276500565" version="1" lat="45.9703321" lon="7.6349133" action="modify"><tag k="ele" v="3469" /><tag k="name" v="Colle Tournanche" /><tag k="natural" v="saddle" /><tag k="source" v="Carta Tecnica Regione VDA" /></node><node id="1847275612" version="12" lat="46.5416472" lon="10.4331852" action="modify"><tag k="ele" v="2498" /><tag k="mountain_pass" v="yes" /><tag k="name" v="Pass Umbrail" /><tag k="name:de" v="Umbrailpass" /><tag k="name:it" v="Giogo di Santa Maria" /><tag k="name:pl" v="Przełęcz Umbrail" /><tag k="name:rm" v="Pass da l'Umbrail" /><tag k="natural" v="saddle" /><tag k="old_name:de" v="Wormser Joch" /><tag k="wikidata" v="Q665026" /><tag k="wikipedia" v="de:Umbrailpass" /></node><node id="3718323400" version="2" lat="46.73512" lon="8.8069218" action="modify"><tag k="ele" v="2720" /><tag k="name" v="Brunnipass" /><tag k="natural" v="saddle" /><tag k="wikidata" v="Q88642864" /></node><node id="687555359" version="3" lat="45.8595545" lon="7.112684" action="modify"><tag k="ele" v="2935" /><tag k="mountain_pass" v="yes" /><tag k="name" v="Col des Angroniettes" /><tag k="natural" v="saddle" /><tag k="source" v="camptocamp" /></node><node id="434135231" version="5" lat="46.2330076" lon="7.0833743" action="modify"><tag k="ele" v="2120" /><tag k="mountain_pass" v="yes" /><tag k="name" v="Col des Pauvres" /><tag k="natural" v="saddle" /><tag k="wikidata" v="Q27863286" /></node><node id="3115284489" version="3" lat="46.8733482" lon="10.3693232" action="modify"><tag k="ele" v="2633" /><tag k="name" v="Fuorcla Pradatsch" /><tag k="natural" v="saddle" /></node><node id="8156031532" version="2" lat="47.015884" lon="9.2419682" action="modify"><tag k="name" v="Schönbüelfurggel" /><tag k="natural" v="saddle" /><tag k="ele" v="2205" /></node><node id="1500628061" version="5" lat="46.0263673" lon="6.9702886" action="modify"><tag k="ele" v="2190" /><tag k="mountain_pass" v="yes" /><tag k="name" v="Col de Balme" /><tag k="natural" v="saddle" /><tag k="westra_ref" v="11696" /><tag k="wikidata" v="Q2982009" /><tag k="wikipedia" v="fr:Col de Balme" /></node><node id="1372732324" version="2" lat="46.3636142" lon="9.8588954" action="modify"><tag k="ele" v="3419" /><tag k="name" v="Fuorcla Occidentale" /><tag k="natural" v="saddle" /></node><node id="807805964" version="2" lat="46.5101174" lon="9.9411214" action="modify"><tag k="ele" v="2803" /><tag k="name" v="Fuorcla Val Champagna" /><tag k="natural" v="saddle" /></node><node id="3294681311" version="3" lat="46.473804" lon="9.3917952" action="modify"><tag k="alt_name" v="Passo di Niemet" /><tag k="ele" v="2282" /><tag k="it:lombardia:ctrn:localita_significativa:cod_ele" v="LO1597" /><tag k="mountain_pass" v="yes" /><tag k="name" v="Pass da Niemet" /><tag k="natural" v="saddle" /><tag k="source" v="Regione Lombardia - La banca dati territoriali CTR10000 e' prodotta da Regione Lombardia - Infrastruttura per l'Informazione Territoriale" /><tag k="wikidata" v="Q3897437" /><tag k="wikipedia" v="it:Passo di Niemet" /></node><node id="258384887" version="25" lat="46.3999357" lon="9.6958071" action="modify"><tag k="ele" v="1812" /><tag k="mountain_pass" v="yes" /><tag k="name" v="Passo del Maloja" /><tag k="name:en" v="Maloja Pass" /><tag k="name:es" v="Puerto de la Maloja" /><tag k="name:fr" v="Col de la Maloja" /><tag k="name:it" v="Passo del Maloggia" /><tag k="name:no" v="Malojapasset" /><tag k="name:rm" v="Pass da Malögia" /><tag k="name:ru" v="Мало́япасс" /><tag k="natural" v="saddle" /><tag k="wikidata" v="Q664978" /><tag k="wikimedia_commons" v="Category:Malojapass" /><tag k="wikipedia" v="de:Malojapass" /></node><node id="4343236460" version="1" lat="46.3321979" lon="7.2855985" action="modify"><tag k="natural" v="saddle" /><tag k="name" v="Col de Sénin" /><tag k="ele" v="2242" /></node><node id="645606078" version="6" lat="46.1307995" lon="7.6782515" action="modify"><tag k="ele" v="3227" /><tag k="mountain_pass" v="yes" /><tag k="name" v="Col de Tracuit" /><tag k="natural" v="saddle" /></node><node id="2423779366" version="3" lat="46.0822751" lon="7.363845" action="modify"><tag k="ele" v="2965" /><tag k="mountain_pass" v="yes" /><tag k="name" v="Col de Prafleuri" /><tag k="natural" v="saddle" /></node><node id="459849783" version="3" lat="46.1132512" lon="7.3575518" action="modify"><tag k="ele" v="2992" /><tag k="mountain_pass" v="yes" /><tag k="name" v="Col d'Orchère" /><tag k="natural" v="saddle" /><tag k="source" v="camptocamp.org" /></node><node id="3174895496" version="3" lat="45.9894395" lon="7.4725896" action="modify"><tag k="ele" v="3153" /><tag k="mountain_pass" v="yes" /><tag k="name" v="Col des Vignettes" /><tag k="natural" v="saddle" /><tag k="westra_ref" v="11691" /></node><node id="1963243830" version="3" lat="46.596362" lon="8.6086517" action="modify"><tag k="ele" v="2875" /><tag k="mountain_pass" v="yes" /><tag k="name" v="St. Annalücke" /><tag k="natural" v="saddle" /></node><node id="2888050506" version="6" lat="46.5144482" lon="7.3046961" action="modify"><tag k="ele" v="1274" /><tag k="mountain_pass" v="yes" /><tag k="name" v="Saanenmöser" /><tag k="name:fr" v="Col des Mosses de Gesseney" /><tag k="natural" v="saddle" /><tag k="wikidata" v="Q680120" /></node><node id="1390050648" version="11" lat="46.8561698" lon="9.4115672" action="modify"><tag k="ele" v="1347" /><tag k="mountain_pass" v="yes" /><tag k="name" v="Kunkelspass" /><tag k="natural" v="saddle" /><tag k="place" v="locality" /><tag k="wikidata" v="Q1792228" /></node><node id="300209696" version="6" lat="47.1320409" lon="9.6254377" action="modify"><tag k="alt_name" v="Mattajoch" /><tag k="direction" v="135" /><tag k="ele" v="1840" /><tag k="mountain_pass" v="yes" /><tag k="name" v="Mattaförkle" /><tag k="natural" v="saddle" /><tag k="tourism" v="viewpoint" /></node><node id="834405757" version="3" lat="46.4534274" lon="9.2344067" action="modify"><tag k="direction" v="60" /><tag k="ele" v="2418" /><tag k="name" v="Bocchetta de Curciusa" /><tag k="natural" v="saddle" /></node><node id="1372730357" version="2" lat="46.3384233" lon="9.7816817" action="modify"><tag k="ele" v="3288" /><tag k="name" v="Bocchetta di Fora" /><tag k="natural" v="saddle" /></node><node id="479094155" version="5" lat="46.1148034" lon="8.0201931" action="modify"><tag k="ele" v="3242" /><tag k="mountain_pass" v="yes" /><tag k="name" v="Zwischbergenpass" /><tag k="natural" v="saddle" /><tag k="wikidata" v="Q244861" /></node><node id="1347923175" version="3" lat="46.4482965" lon="8.3613854" action="modify"><tag k="name" v="Bättelmattpass" /><tag k="name:de" v="Bättelmattpass" /><tag k="natural" v="saddle" /><tag k="ele" v="2605" /></node><node id="8914657792" version="1" lat="47.0029645" lon="9.8821695" action="modify"><tag k="ele" v="2343" /><tag k="name" v="Plasseggapass" /><tag k="natural" v="saddle" /></node><node id="1372732008" version="2" lat="46.3611172" lon="9.8343177" action="modify"><tag k="ele" v="3355" /><tag k="it:lombardia:ctrn:localita_significativa:cod_ele" v="LO3068" /><tag k="mountain_pass" v="yes" /><tag k="name" v="Fuorcla dal Glüschaint" /><tag k="natural" v="saddle" /><tag k="source" v="Regione Lombardia - La banca dati territoriali CTR10000 e' prodotta da Regione Lombardia - Infrastruttura per l'Informazione Territoriale" /></node><node id="564938353" version="2" lat="46.6051975" lon="10.0988484" action="modify"><tag k="ele" v="2905" /><tag k="it:lombardia:ctrn:localita_significativa:cod_ele" v="LO1642" /><tag k="mountain_pass" v="yes" /><tag k="name" v="Fuorcla Müschauns" /><tag k="natural" v="saddle" /><tag k="source" v="Regione Lombardia - La banca dati territoriali CTR10000 e' prodotta da Regione Lombardia - Infrastruttura per l'Informazione Territoriale" /></node><node id="10199246038" version="1" lat="45.9622762" lon="7.2634381" action="modify"><tag k="ele" v="3526" /><tag k="name" v="Col du Ritord" /><tag k="natural" v="saddle" /></node><node id="766684434" version="6" lat="46.3089116" lon="6.8274038" action="modify"><tag k="ele" v="1787" /><tag k="name" v="Col de Conches" /><tag k="name:fr-ch" v="Col de Conche" /><tag k="name:fr-fr" v="Col de Braitaz" /><tag k="natural" v="saddle" /></node><node id="29757549" version="8" lat="47.372855" lon="7.1413531" action="modify"><tag k="ele" v="785" /><tag k="mountain_pass" v="yes" /><tag k="name" v="Col de la Croix" /><tag k="natural" v="saddle" /><tag k="wikidata" v="Q390993" /><tag k="wikipedia" v="fr:Col de la Croix (Jura)" /></node><node id="1197044141" version="4" lat="46.2969326" lon="9.9935982" action="modify"><tag k="ele" v="2463" /><tag k="name" v="Pass da Cancian" /><tag k="natural" v="saddle" /></node><node id="4362874323" version="2" lat="46.3812501" lon="9.6128225" action="modify"><tag k="ele" v="2369" /><tag k="name" v="Bocchetta da la Furcela" /><tag k="natural" v="saddle" /></node><node id="1102704120" version="4" lat="46.3989758" lon="7.1026303" action="modify"><tag k="ele" v="1442" /><tag k="mountain_pass" v="yes" /><tag k="name" v="Col des Mosses" /><tag k="natural" v="saddle" /><tag k="wikidata" v="Q636165" /><tag k="wikipedia" v="de:Col des Mosses" /></node><node id="286440973" version="7" lat="46.6498994" lon="6.3659" action="modify"><tag k="ele" v="1179" /><tag k="mountain_pass" v="yes" /><tag k="name" v="Col du Mollendruz" /><tag k="natural" v="saddle" /><tag k="wikidata" v="Q391715" /></node><node id="6785132444" version="1" lat="46.4247833" lon="8.3236241" action="modify"><tag k="ele" v="3089" /><tag k="name" v="Gran Sella del Gries" /><tag k="natural" v="saddle" /></node><node id="7875989732" version="2" lat="46.9588081" lon="9.1221775" action="modify"><tag k="mountain_pass" v="yes" /><tag k="natural" v="saddle" /><tag k="name" v="Vordere Gandfurggele" /><tag k="ele" v="2163" /></node><node id="290183612" version="8" lat="46.4537719" lon="8.3739756" action="modify"><tag k="ele" v="2452" /><tag k="mountain_pass" v="yes" /><tag k="name" v="Griespass" /><tag k="name:de" v="Griespass" /><tag k="name:fr" v="Col de Gries" /><tag k="name:it" v="Passo del Gries" /><tag k="natural" v="saddle" /><tag k="wikidata" v="Q365864" /><tag k="wikipedia" v="de:Griespass" /></node><node id="918605990" version="5" lat="45.9971635" lon="7.3096029" action="modify"><tag k="ele" v="2846" /><tag k="hiking" v="yes" /><tag k="mountain_pass" v="yes" /><tag k="name" v="Col des Otanes" /><tag k="natural" v="saddle" /></node><node id="519826628" version="7" lat="46.6781232" lon="9.8715954" action="modify"><tag k="ele" v="2563" /><tag k="mountain_pass" v="yes" /><tag k="name" v="Sella da Ravegs-ch" /><tag k="natural" v="saddle" /><tag k="wpt_description" v="Sella Da Ravais-Ch (2569 M)" /></node><node id="1372731573" version="2" lat="46.3523419" lon="9.0884426" action="modify"><tag k="ele" v="2428" /><tag k="name" v="Bocchetta Rotonda" /><tag k="natural" v="saddle" /></node><node id="11816615115" version="1" lat="47.3313738" lon="8.9021111" action="modify"><tag k="ele" v="961" /><tag k="name" v="Ghöch" /><tag k="natural" v="saddle" /><tag k="wikidata" v="Q1522003" /><tag k="wikipedia" v="de:Ghöch" /></node><node id="658836537" version="3" lat="46.4046231" lon="7.8522821" action="modify"><tag k="ele" v="3162" /><tag k="mountain_pass" v="yes" /><tag k="name" v="Baltschiederjoch" /><tag k="natural" v="saddle" /></node><node id="1372819552" version="3" lat="46.9387473" lon="9.8795421" action="modify"><tag k="ele" v="2609" /><tag k="name" v="Madrisajoch" /><tag k="natural" v="saddle" /></node><node id="1372813211" version="3" lat="46.8740502" lon="10.0519245" action="modify"><tag k="ele" v="2830" /><tag k="mountain_pass" v="yes" /><tag k="name" v="Winterlücke" /><tag k="natural" v="saddle" /></node><node id="10314725053" version="1" lat="46.4752581" lon="9.0858385" action="modify"><tag k="direction" v="100" /><tag k="ele" v="3045" /><tag k="name" v="Zapportpass" /><tag k="natural" v="saddle" /></node><node id="6883785403" version="2" lat="46.6796919" lon="9.8083514" action="modify"><tag k="ele" v="2624" /><tag k="name" v="Lengfurgga" /><tag k="natural" v="saddle" /></node><node id="303611869" version="5" lat="46.3792225" lon="7.7066781" action="modify"><tag k="ele" v="2711" /><tag k="name" v="Tellifurgga" /><tag k="natural" v="saddle" /></node><node id="7888176282" version="2" lat="46.0442891" lon="6.8863377" action="modify"><tag k="ele" v="2603" /><tag k="name" v="Col de Corbeau" /><tag k="natural" v="saddle" /></node><node id="1604293770" version="14" lat="46.4722136" lon="9.7281463" action="modify"><tag k="ele" v="2277" /><tag k="mountain_pass" v="yes" /><tag k="name" v="Julierpass" /><tag k="name:de" v="Julierpass" /><tag k="name:it" v="Passo del Giulia" /><tag k="name:rm" v="Pass dal Güglia" /><tag k="name:rm-put" v="Pass dal Güglia" /><tag k="name:rm-sur" v="Pass digl Gelgia" /><tag k="natural" v="saddle" /><tag k="wikidata" v="Q289898" /></node><node id="2321204760" version="4" lat="46.555901" lon="7.8207173" action="modify"><tag k="ele" v="2640" /><tag k="mountain_pass" v="yes" /><tag k="name" v="Rota Härd" /><tag k="natural" v="saddle" /></node><node id="358148150" version="14" lat="45.9672319" lon="7.3901154" action="modify"><tag k="ele" v="3064" /><tag k="mountain_pass" v="yes" /><tag k="name" v="Col de Lire Rose" /><tag k="name:ru" v="Розовой лиры" /><tag k="natural" v="saddle" /><tag k="rtsa_scale" v="н/к" /><tag k="westra_ref" v="11637" /></node><node id="564380313" version="3" lat="46.2753053" lon="10.034128" action="modify"><tag k="ele" v="2586" /><tag k="it:lombardia:ctrn:localita_significativa:cod_ele" v="LO3342" /><tag k="mountain_pass" v="yes" /><tag k="name" v="Bocchetta da Vartegna" /><tag k="natural" v="saddle" /><tag k="source" v="Regione Lombardia - La banca dati territoriali CTR10000 e' prodotta da Regione Lombardia - Infrastruttura per l'Informazione Territoriale" /></node><node id="5667438482" version="5" lat="46.3033348" lon="6.8284858" action="modify"><tag k="ele" v="1787" /><tag k="mountain_pass" v="yes" /><tag k="name" v="Col de Braitaz" /><tag k="name:fr-ch" v="Col de Recon" /><tag k="name:fr-fr" v="Col de Rapenaz" /><tag k="natural" v="saddle" /></node><node id="5379031155" version="2" lat="45.9188153" lon="7.8606732" action="modify"><tag k="ele" v="4284" /><tag k="mountain_pass" v="yes" /><tag k="name" v="Piodejoch" /><tag k="name:fr" v="Col du Lys" /><tag k="natural" v="saddle" /><tag k="wikidata" v="Q2982291" /><tag k="wikipedia" v="it:Colle del Lys (Alpi Pennine)" /></node><node id="11549716751" version="1" lat="46.7442804" lon="9.3080453" action="modify"><tag k="ele" v="2326" /><tag k="natural" v="saddle" /><tag k="name" v="Lückli" /></node><node id="1699505565" version="3" lat="45.9568844" lon="7.0464562" action="modify"><tag k="ele" v="3400" /><tag k="mountain_pass" v="yes" /><tag k="natural" v="saddle" /><tag k="name" v="Col de l'A Neuve" /></node><node id="11368941446" version="1" lat="47.1758371" lon="9.1062369" action="modify"><tag k="direction" v="100" /><tag k="ele" v="1695" /><tag k="name" v="Chämi" /><tag k="natural" v="saddle" /></node><node id="3377701377" version="1" lat="46.6349287" lon="8.3812109" action="modify"><tag k="ele" v="3078" /><tag k="mountain_pass" v="yes" /><tag k="name" v="Undri Triftlimi" /><tag k="natural" v="saddle" /></node><node id="11553929493" version="1" lat="46.6568968" lon="9.3893342" action="modify"><tag k="direction" v="160" /><tag k="ele" v="2200" /><tag k="name" v="Lügga" /><tag k="natural" v="saddle" /></node><node id="317040001" version="3" lat="46.3080879" lon="8.2091415" action="modify"><tag k="ele" v="2496" /><tag k="mountain_pass" v="yes" /><tag k="name" v="Passo di Cornera" /><tag k="name:it" v="Passo di Cornera" /><tag k="natural" v="saddle" /></node><node id="3687879835" version="3" lat="46.2577214" lon="8.0736708" action="modify"><tag k="ele" v="2900" /><tag k="mountain_pass" v="yes" /><tag k="name" v="Passo Terrarossa" /><tag k="natural" v="saddle" /></node><node id="9807581938" version="1" lat="46.4117694" lon="9.9019668" action="modify"><tag k="ele" v="3335" /><tag k="name" v="Fuorcla Tschierva" /><tag k="natural" v="saddle" /></node><node id="808269517" version="2" lat="46.5967263" lon="8.3620177" action="modify"><tag k="ele" v="3087" /><tag k="mountain_pass" v="yes" /><tag k="name" v="Gärstenlicke" /><tag k="natural" v="saddle" /></node><node id="6537449563" version="1" lat="46.0626103" lon="7.3443094" action="modify"><tag k="ele" v="3038" /><tag k="name" v="Col de la Rionde" /><tag k="natural" v="saddle" /></node><node id="9504626990" version="1" lat="46.4772043" lon="9.9968628" action="modify"><tag k="ele" v="2867" /><tag k="name" v="Fuorcla Sagliaint" /><tag k="natural" v="saddle" /></node><node id="9193078024" version="1" lat="46.0876558" lon="6.8885203" action="modify"><tag k="ele" v="2572" /><tag k="name" v="Bas de Ballavaux" /><tag k="natural" v="saddle" /></node><node id="1502253994" version="3" lat="46.9715772" lon="10.3632945" action="modify"><tag k="ele" v="2487" /><tag k="name" v="Alptrider Sattl" /><tag k="natural" v="saddle" /></node><node id="3718566956" version="1" lat="46.2588121" lon="8.0708398" action="modify"><tag k="ele" v="2900" /><tag k="mountain_pass" v="yes" /><tag k="name" v="Wasmerlicke" /><tag k="natural" v="saddle" /></node><node id="6537449557" version="1" lat="46.053801" lon="7.35374" action="modify"><tag k="ele" v="3115" /><tag k="name" v="Col des Chamois" /><tag k="natural" v="saddle" /></node><node id="3069029964" version="6" lat="46.7745642" lon="8.5746716" action="modify"><tag k="direction" v="90" /><tag k="ele" v="2558" /><tag k="mountain_pass" v="yes" /><tag k="name" v="Wichelpass" /><tag k="natural" v="saddle" /></node><node id="2895091674" version="2" lat="46.5116135" lon="9.3635316" action="modify"><tag k="ele" v="2744" /><tag k="mountain_pass" v="yes" /><tag k="name" v="Surettasattel" /><tag k="natural" v="saddle" /></node><node id="9656288575" version="1" lat="46.5844789" lon="9.042401" action="modify"><tag k="ele" v="2796" /><tag k="name" v="Fuorcla Val Nova" /><tag k="natural" v="saddle" /></node><node id="564938352" version="2" lat="46.6062496" lon="10.1179503" action="modify"><tag k="ele" v="2826" /><tag k="it:lombardia:ctrn:localita_significativa:cod_ele" v="LO1639" /><tag k="mountain_pass" v="yes" /><tag k="name" v="Fuorcla dal Diavel" /><tag k="natural" v="saddle" /><tag k="source" v="Regione Lombardia - La banca dati territoriali CTR10000 e' prodotta da Regione Lombardia - Infrastruttura per l'Informazione Territoriale" /></node><node id="1783976778" version="5" lat="46.9121518" lon="8.4841218" action="modify"><tag k="ele" v="2096" /><tag k="name" v="Schinberg Jochli" /><tag k="natural" v="saddle" /></node><node id="1768937903" version="2" lat="46.1185177" lon="7.7171781" action="modify"><tag k="mountain_pass" v="yes" /><tag k="natural" v="saddle" /><tag k="name" v="Weisshornjoch" /><tag k="ele" v="4061" /></node><node id="10237991889" version="1" lat="46.4032468" lon="9.0914653" action="modify"><tag k="direction" v="85" /><tag k="ele" v="2588" /><tag k="name" v="Bocchetta di Caldözz" /><tag k="natural" v="saddle" /></node><node id="1479101970" version="8" lat="46.4771192" lon="8.3878277" action="modify"><tag k="ele" v="2439" /><tag k="mountain_pass" v="yes" /><tag k="name" v="Passo della Novena" /><tag k="name:de" v="Nufenenpass" /><tag k="name:fr" v="Col du Nufenen" /><tag k="name:it" v="Passo della Novena" /><tag k="name:pl" v="Przełęcz Nufenen" /><tag k="natural" v="saddle" /><tag k="official_name" v="Nufenenpass" /><tag k="wikidata" v="Q570647" /><tag k="wikipedia" v="de:Nufenenpass" /></node><node id="9955882570" version="1" lat="46.3413148" lon="8.5358055" action="modify"><tag k="ele" v="2318" /><tag k="name" v="Bocchetta di Cerentino" /><tag k="natural" v="saddle" /></node><node id="3769530207" version="2" lat="46.7824214" lon="8.2299544" action="modify"><tag k="ele" v="2229" /><tag k="name" v="Abgschütz" /><tag k="natural" v="saddle" /></node><node id="-1" version="1" lat="46.59844924826695" lon="9.378819383915594"><tag k="name" v="Furcla digl Vizan" /><tag k="ele" v="2392" /><tag k="natural" v="saddle" /></node><node id="-2" version="1" lat="46.892088447835846" lon="8.784002007253356"><tag k="name" v="Alpler Tor" /><tag k="ele" v="2448" /><tag k="natural" v="saddle" /></node><node id="-3" version="1" lat="46.2509061881903" lon="7.6272110452403385"><tag k="name" v="Illpass" /><tag k="ele" v="2488" /><tag k="natural" v="saddle" /></node><node id="-4" version="1" lat="46.56031608976392" lon="9.497430980326056"><tag k="name" v="Furcletta digl Gurschus" /><tag k="ele" v="2708" /><tag k="natural" v="saddle" /></node><node id="-5" version="1" lat="46.924708943281026" lon="8.872315263313924"><tag k="name" v="Pfaffenkreuz" /><tag k="ele" v="2057" /><tag k="natural" v="saddle" /></node><node id="-6" version="1" lat="46.738818578022396" lon="10.327173357816001"><tag k="name" v="Fuorcla Trigliet" /><tag k="ele" v="2670" /><tag k="natural" v="saddle" /></node><node id="-7" version="1" lat="46.19285860519713" lon="7.532012163760833"><tag k="name" v="Col du Tsan" /><tag k="ele" v="2748" /><tag k="natural" v="saddle" /></node><node id="-8" version="1" lat="46.84643174585259" lon="8.521181822603532"><tag k="name" v="Blackenlücke" /><tag k="ele" v="2556" /><tag k="natural" v="saddle" /></node><node id="-9" version="1" lat="46.550654387753866" lon="10.02850294386592"><tag k="name" v="Fuorcla Chaschanella" /><tag k="ele" v="2784" /><tag k="natural" v="saddle" /></node><node id="-10" version="1" lat="46.82336665605396" lon="8.582946810948844"><tag k="name" v="Follenfurggi" /><tag k="ele" v="2446" /><tag k="natural" v="saddle" /></node><node id="-11" version="1" lat="46.762996879387686" lon="8.783097835639264"><tag k="name" v="Schwarztallücke" /><tag k="ele" v="2711" /><tag k="natural" v="saddle" /></node><node id="-12" version="1" lat="47.042811509339465" lon="8.734285701693588"><tag k="name" v="Furggelen" /><tag k="ele" v="1526" /><tag k="natural" v="saddle" /></node><node id="-13" version="1" lat="46.11420373877284" lon="6.893660300886553"><tag k="name" v="Col du Ruan" /><tag k="ele" v="2783" /><tag k="natural" v="saddle" /></node><node id="-14" version="1" lat="46.87072254556002" lon="9.034456679503649"><tag k="name" v="Hintersulzlücke" /><tag k="ele" v="2645" /><tag k="natural" v="saddle" /></node><node id="-15" version="1" lat="46.36422059245111" lon="7.580122313385913"><tag k="name" v="Varnerschnide" /><tag k="ele" v="2716" /><tag k="natural" v="saddle" /></node><node id="-16" version="1" lat="46.834402597505104" lon="9.802574813628187"><tag k="name" v="Wasserscheidi" /><tag k="ele" v="2623" /><tag k="natural" v="saddle" /></node><node id="-17" version="1" lat="46.32121863726579" lon="9.719520307792733"><tag k="name" v="Passo di Val Bona" /><tag k="ele" v="2944" /><tag k="natural" v="saddle" /></node><node id="-18" version="1" lat="46.578109889147704" lon="9.072614722299667"><tag k="name" v="Fuorcla Conteschas" /><tag k="ele" v="2758" /><tag k="natural" v="saddle" /></node><node id="-19" version="1" lat="45.958905053277725" lon="7.074093037166882"><tag k="name" v="Col de Crête Sèche" /><tag k="ele" v="2920" /><tag k="natural" v="saddle" /></node><node id="-20" version="1" lat="45.969425823612205" lon="7.251531174802352"><tag k="name" v="Col du Mérignier" /><tag k="ele" v="3198" /><tag k="natural" v="saddle" /></node><node id="-21" version="1" lat="46.551359156162356" lon="8.238755084375978"><tag k="name" v="Zinggenlicken" /><tag k="ele" v="2982" /><tag k="natural" v="saddle" /></node><node id="-22" version="1" lat="45.99656932214278" lon="7.441165699565346"><tag k="name" v="Col de Tsijiore Nouve" /><tag k="ele" v="3416" /><tag k="natural" v="saddle" /></node><node id="-23" version="1" lat="46.2087151825489" lon="8.804871148995185"><tag k="name" v="Bassa di Bietri" /><tag k="ele" v="1467" /><tag k="natural" v="saddle" /></node><node id="-24" version="1" lat="46.550328524317415" lon="9.81433441793413"><tag k="name" v="Fuorcla da Muottas" /><tag k="ele" v="2753" /><tag k="natural" v="saddle" /></node><node id="-25" version="1" lat="46.37285200208486" lon="10.127246081401813"><tag k="name" v="Bocchetta da Cantonascia" /><tag k="ele" v="2836" /><tag k="natural" v="saddle" /></node><node id="-26" version="1" lat="46.37365997101891" lon="8.503414003207007"><tag k="name" v="Bocchetta di Nassa" /><tag k="ele" v="2302" /><tag k="natural" v="saddle" /></node><node id="-27" version="1" lat="46.21324221916684" lon="7.126472333803998"><tag k="name" v="Trou de Bougnonne Dessous" /><tag k="ele" v="2363" /><tag k="natural" v="saddle" /></node><node id="-28" version="1" lat="46.44833794828977" lon="8.003386653674728"><tag k="name" v="Geisslücke" /><tag k="ele" v="3582" /><tag k="natural" v="saddle" /></node><node id="-29" version="1" lat="47.19656656125275" lon="9.13787099349506"><tag k="name" v="Bützalpsattel" /><tag k="ele" v="1591" /><tag k="natural" v="saddle" /></node><node id="-30" version="1" lat="47.15595315789282" lon="9.123919257093942"><tag k="name" v="Underfurggle" /><tag k="ele" v="1347" /><tag k="natural" v="saddle" /></node><node id="-31" version="1" lat="46.98583243953781" lon="10.395387954462688"><tag k="name" v="Fuorcla" /><tag k="ele" v="2541" /><tag k="natural" v="saddle" /></node><node id="-32" version="1" lat="46.168207988597935" lon="6.79839365940467"><tag k="name" v="Col de Bassachaux" /><tag k="ele" v="2094" /><tag k="natural" v="saddle" /></node><node id="-33" version="1" lat="46.05994390160762" lon="7.685399858848331"><tag k="name" v="Ober Rothornjoch" /><tag k="ele" v="3835" /><tag k="natural" v="saddle" /></node><node id="-34" version="1" lat="46.392624143315196" lon="7.936657536779438"><tag k="name" v="Grisigpass" /><tag k="ele" v="3174" /><tag k="natural" v="saddle" /></node><node id="-35" version="1" lat="46.35704177252993" lon="7.79130873590407"><tag k="name" v="Chastlertellipass" /><tag k="ele" v="2779" /><tag k="natural" v="saddle" /></node><node id="-36" version="1" lat="46.285077926318046" lon="9.2526186381804"><tag k="name" v="Bocchetta d'Egion" /><tag k="ele" v="2145" /><tag k="natural" v="saddle" /></node><node id="-37" version="1" lat="47.18314144739445" lon="9.573687521525322"><tag k="name" v="Sarojasattel" /><tag k="ele" v="1627" /><tag k="natural" v="saddle" /></node><node id="-38" version="1" lat="46.83515324899102" lon="10.465549713570638"><tag k="name" v="Grubenjoch" /><tag k="ele" v="2646" /><tag k="natural" v="saddle" /></node><node id="-39" version="1" lat="47.11903245454028" lon="9.56237772347766"><tag k="name" v="Kulm" /><tag k="ele" v="1450" /><tag k="natural" v="saddle" /></node><node id="-40" version="1" lat="46.59010747140105" lon="10.008094290895663"><tag k="name" v="Fuorcla" /><tag k="ele" v="2617" /><tag k="natural" v="saddle" /></node><node id="-41" version="1" lat="46.355990582986" lon="7.78503966293431"><tag k="name" v="Schintilicke" /><tag k="ele" v="2834" /><tag k="natural" v="saddle" /></node><node id="-42" version="1" lat="46.392194279775346" lon="7.5501369377122005"><tag k="name" v="Schneehorepass" /><tag k="ele" v="3059" /><tag k="natural" v="saddle" /></node><node id="-43" version="1" lat="46.67701023925627" lon="8.640938928892853"><tag k="name" v="Rientallücke" /><tag k="ele" v="2701" /><tag k="natural" v="saddle" /></node><node id="-44" version="1" lat="47.25690689217664" lon="9.29365044219488"><tag k="name" v="Chräzerenpass" /><tag k="ele" v="1267" /><tag k="natural" v="saddle" /></node><node id="-45" version="1" lat="46.516397698081434" lon="7.822836352628967"><tag k="name" v="Bütlassasattel" /><tag k="ele" v="3019" /><tag k="natural" v="saddle" /></node><node id="-46" version="1" lat="46.98650903672425" lon="10.346084658519397"><tag k="name" v="Flimjoch" /><tag k="ele" v="2757" /><tag k="natural" v="saddle" /></node><node id="-47" version="1" lat="46.90144491879505" lon="9.386249559584718"><tag k="name" v="Orglenlücke" /><tag k="ele" v="2609" /><tag k="natural" v="saddle" /></node><node id="-48" version="1" lat="46.42600856172366" lon="9.094771907537588"><tag k="name" v="Passo di Revi" /><tag k="ele" v="2674" /><tag k="natural" v="saddle" /></node><node id="-49" version="1" lat="46.738055104751695" lon="7.3929592132587105"><tag k="name" v="Schwarzenbühlpass" /><tag k="ele" v="1544" /><tag k="natural" v="saddle" /></node><node id="-50" version="1" lat="46.58548395506828" lon="7.880134817053121"><tag k="name" v="Jochli" /><tag k="ele" v="1897" /><tag k="natural" v="saddle" /></node><node id="-51" version="1" lat="46.5890311951801" lon="7.333131562907576"><tag k="name" v="Jaunpass" /><tag k="ele" v="1507" /><tag k="natural" v="saddle" /></node><node id="-52" version="1" lat="47.34765212663214" lon="7.787127422681979"><tag k="name" v="Schwengihöchi" /><tag k="ele" v="905" /><tag k="natural" v="saddle" /></node><node id="-53" version="1" lat="46.38229525586679" lon="7.813011053745996"><tag k="name" v="Wilerjoch" /><tag k="ele" v="3070" /><tag k="natural" v="saddle" /></node><node id="-54" version="1" lat="46.39406850611548" lon="7.716609101720596"><tag k="name" v="Mandlischfurgga" /><tag k="ele" v="2686" /><tag k="natural" v="saddle" /></node><node id="-55" version="1" lat="47.415699271868476" lon="7.946292288022401"><tag k="name" v="Schafmatt" /><tag k="ele" v="793" /><tag k="natural" v="saddle" /></node><node id="-56" version="1" lat="46.363789609417225" lon="8.849475986595746"><tag k="name" v="Bassa di Partüs" /><tag k="ele" v="2410" /><tag k="natural" v="saddle" /></node><node id="-57" version="1" lat="46.13666965684384" lon="6.849697470367605"><tag k="name" v="Col de Corna Mornay" /><tag k="ele" v="2375" /><tag k="natural" v="saddle" /></node><node id="-58" version="1" lat="46.33523466279981" lon="6.799928088424649"><tag k="name" v="Col de Chaudin" /><tag k="ele" v="2096" /><tag k="natural" v="saddle" /></node><node id="-59" version="1" lat="46.44691903957242" lon="7.8242320240132"><tag k="name" v="Furggeltin" /><tag k="ele" v="2927" /><tag k="natural" v="saddle" /></node><node id="-60" version="1" lat="46.54397208621788" lon="8.117133226453845"><tag k="name" v="Agassizjoch" /><tag k="ele" v="3747" /><tag k="natural" v="saddle" /></node><node id="-61" version="1" lat="46.70028761943879" lon="8.70626538021103"><tag k="name" v="Fuorcla Piz Nair" /><tag k="ele" v="2830" /><tag k="natural" v="saddle" /></node><node id="-62" version="1" lat="46.971512772567856" lon="9.39782216857272"><tag k="name" v="Wildseeluggen" /><tag k="ele" v="2492" /><tag k="natural" v="saddle" /></node><node id="-63" version="1" lat="46.40584523024723" lon="9.673655450522396"><tag k="name" v="Pass da lan Traversa" /><tag k="ele" v="2367" /><tag k="natural" v="saddle" /></node><node id="-64" version="1" lat="46.48555521550108" lon="8.102961889311736"><tag k="name" v="Wannenhornsattel" /><tag k="ele" v="3669" /><tag k="natural" v="saddle" /></node><node id="-65" version="1" lat="46.004613578671496" lon="7.015775458381472"><tag k="name" v="Col du Pissoir" /><tag k="ele" v="3149" /><tag k="natural" v="saddle" /></node><node id="-66" version="1" lat="46.573074539555" lon="7.95991838103776"><tag k="name" v="Haaregg" /><tag k="ele" v="1990" /><tag k="natural" v="saddle" /></node><node id="-67" version="1" lat="46.58838433166967" lon="8.611669523068391"><tag k="name" v="Gitziälpetlilücke" /><tag k="ele" v="2727" /><tag k="natural" v="saddle" /></node><node id="-68" version="1" lat="46.340430084650855" lon="9.683164686539453"><tag k="name" v="Furcela dal Riciöl" /><tag k="ele" v="3040" /><tag k="natural" v="saddle" /></node><node id="-69" version="1" lat="47.02062537209856" lon="8.83854346448927"><tag k="name" v="Hinterofenhöchi" /><tag k="ele" v="1823" /><tag k="natural" v="saddle" /></node><node id="-70" version="1" lat="46.32973316318606" lon="8.838798891624869"><tag k="name" v="Bocchetta dello Scaiee" /><tag k="ele" v="2434" /><tag k="natural" v="saddle" /></node><node id="-71" version="1" lat="46.16336731809712" lon="7.672065922775351"><tag k="name" v="Wängerjoch" /><tag k="ele" v="3026" /><tag k="natural" v="saddle" /></node><node id="-72" version="1" lat="45.92254181408287" lon="7.874229589985713"><tag k="name" v="Colle Sesia" /><tag k="ele" v="4300" /><tag k="natural" v="saddle" /></node><node id="-73" version="1" lat="45.978577221532795" lon="7.0344280437103945"><tag k="name" v="Fenêtre de Suzanne" /><tag k="ele" v="3140" /><tag k="natural" v="saddle" /></node><node id="-74" version="1" lat="45.855493113749006" lon="9.051444788642616"><tag k="name" v="Forcella" /><tag k="ele" v="869" /><tag k="natural" v="saddle" /></node><node id="-75" version="1" lat="47.464056239135" lon="7.638547668972606"><tag k="name" v="Tüfletehöchi" /><tag k="ele" v="660" /><tag k="natural" v="saddle" /></node><node id="-76" version="1" lat="46.62184783983148" lon="8.433405979719403"><tag k="name" v="Ober Gletschjoch" /><tag k="ele" v="3158" /><tag k="natural" v="saddle" /></node><node id="-77" version="1" lat="46.64605512290997" lon="8.421154367454516"><tag k="name" v="Dammajoch" /><tag k="ele" v="3566" /><tag k="natural" v="saddle" /></node><node id="-78" version="1" lat="46.60257005137553" lon="8.83429873232364"><tag k="name" v="Fuorcla da Garviel" /><tag k="ele" v="2440" /><tag k="natural" v="saddle" /></node><node id="-79" version="1" lat="46.08886483079294" lon="7.573026136339463"><tag k="name" v="Col de la Couronne" /><tag k="ele" v="2986" /><tag k="natural" v="saddle" /></node><node id="-80" version="1" lat="46.72019347733175" lon="9.881397908751712"><tag k="name" v="Riner Furgga" /><tag k="ele" v="2640" /><tag k="natural" v="saddle" /></node><node id="-81" version="1" lat="46.85530605381557" lon="8.463108285565268"><tag k="name" v="Schlittkuchen" /><tag k="ele" v="2519" /><tag k="natural" v="saddle" /></node><node id="-82" version="1" lat="47.272762165741185" lon="9.38300775591102"><tag k="name" v="Altenalpsattel" /><tag k="ele" v="1810" /><tag k="natural" v="saddle" /></node><node id="-83" version="1" lat="46.624523341592116" lon="10.071183875130448"><tag k="name" v="Sella Tantermozza" /><tag k="ele" v="2858" /><tag k="natural" v="saddle" /></node><node id="-84" version="1" lat="46.87975744952957" lon="9.183458921505618"><tag k="name" v="Bündnerbergjoch" /><tag k="ele" v="2610" /><tag k="natural" v="saddle" /></node><node id="-85" version="1" lat="47.00303859901862" lon="9.253110390253067"><tag k="name" v="Fansfurggla" /><tag k="ele" v="2274" /><tag k="natural" v="saddle" /></node><node id="-86" version="1" lat="46.05452828626718" lon="7.730790792211213"><tag k="name" v="Furggji" /><tag k="ele" v="3150" /><tag k="natural" v="saddle" /></node><node id="-87" version="1" lat="46.129785283402484" lon="9.102327651640552"><tag k="name" v="Bocchetta di Stabiello" /><tag k="ele" v="2043" /><tag k="natural" v="saddle" /></node><node id="-88" version="1" lat="46.37794059093106" lon="10.087377851659268"><tag k="name" v="Col da Pisceo" /><tag k="ele" v="1995" /><tag k="natural" v="saddle" /></node><node id="-89" version="1" lat="46.755719467476574" lon="8.482893010568352"><tag k="name" v="Lückli" /><tag k="ele" v="2409" /><tag k="natural" v="saddle" /></node><node id="-90" version="1" lat="46.250427184338704" lon="7.220683754047999"><tag k="name" v="La Forcla" /><tag k="ele" v="2100" /><tag k="natural" v="saddle" /></node><node id="-91" version="1" lat="46.50007832780692" lon="8.594540808425673"><tag k="name" v="Passo dei Sassi" /><tag k="ele" v="2553" /><tag k="natural" v="saddle" /></node><node id="-92" version="1" lat="46.884538153374784" lon="9.064773090863351"><tag k="name" v="Mättlenfurggel" /><tag k="ele" v="2651" /><tag k="natural" v="saddle" /></node><node id="-93" version="1" lat="46.500527459510074" lon="8.996149459659101"><tag k="name" v="Passo di Piotta" /><tag k="ele" v="2030" /><tag k="natural" v="saddle" /></node><node id="-94" version="1" lat="45.92710888730781" lon="7.0430977668890185"><tag k="name" v="Brèche de l'Amône" /><tag k="ele" v="3428" /><tag k="natural" v="saddle" /></node><node id="-95" version="1" lat="46.560394730323594" lon="9.499547384693567"><tag k="name" v="Furcletta dil Capeder" /><tag k="ele" v="2703" /><tag k="natural" v="saddle" /></node><node id="-96" version="1" lat="46.903326779834714" lon="9.47204801933581"><tag k="name" v="Lugga" /><tag k="ele" v="2609" /><tag k="natural" v="saddle" /></node><node id="-97" version="1" lat="46.63248586192663" lon="9.896206157621187"><tag k="name" v="Fuorcla Viluoch" /><tag k="ele" v="2936" /><tag k="natural" v="saddle" /></node><node id="-98" version="1" lat="46.0660047054774" lon="6.8790350400169835"><tag k="name" v="Bas des Cavales" /><tag k="ele" v="2648" /><tag k="natural" v="saddle" /></node><node id="-99" version="1" lat="47.33079607448059" lon="7.77513714023263"><tag k="name" v="Schlosshöchi" /><tag k="ele" v="856" /><tag k="natural" v="saddle" /></node><node id="-100" version="1" lat="46.657130379208496" lon="8.910581147591113"><tag k="name" v="Fuorcla Denter Corns" /><tag k="ele" v="2821" /><tag k="natural" v="saddle" /></node><node id="-101" version="1" lat="46.481522229895944" lon="8.667859470813566"><tag k="name" v="Passo Scheggia" /><tag k="ele" v="2513" /><tag k="natural" v="saddle" /></node><node id="-102" version="1" lat="46.32678332433583" lon="7.230764155416001"><tag k="name" v="Oldesattel" /><tag k="ele" v="2729" /><tag k="natural" v="saddle" /></node><node id="-103" version="1" lat="46.28683057230732" lon="9.641477018797035"><tag k="name" v="Colle Masino" /><tag k="ele" v="3060" /><tag k="natural" v="saddle" /></node><node id="-104" version="1" lat="46.60331324347761" lon="8.094931794185227"><tag k="name" v="Gwächtejoch" /><tag k="ele" v="3100" /><tag k="natural" v="saddle" /></node><node id="-105" version="1" lat="46.57983525514786" lon="8.698563111460889"><tag k="name" v="Fuorcla Borel" /><tag k="ele" v="2861" /><tag k="natural" v="saddle" /></node><node id="-106" version="1" lat="46.82771193409587" lon="8.814704719151095"><tag k="name" v="Schärhorngriggeli" /><tag k="ele" v="2799" /><tag k="natural" v="saddle" /></node><node id="-107" version="1" lat="46.59451683704002" lon="8.253461338695836"><tag k="name" v="Undri Bächlilicken" /><tag k="ele" v="2746" /><tag k="natural" v="saddle" /></node><node id="-108" version="1" lat="46.29798764345222" lon="6.85575938712691"><tag k="name" v="Païeux" /><tag k="ele" v="1677" /><tag k="natural" v="saddle" /></node><node id="-109" version="1" lat="46.3631930423872" lon="7.7101104737802375"><tag k="name" v="Niwenpass" /><tag k="ele" v="2604" /><tag k="natural" v="saddle" /></node><node id="-110" version="1" lat="46.47673911908943" lon="8.008539291501858"><tag k="name" v="Aletschjoch" /><tag k="ele" v="3619" /><tag k="natural" v="saddle" /></node><node id="-111" version="1" lat="46.000162802326244" lon="7.592274000241037"><tag k="name" v="Wandfluejoch" /><tag k="ele" v="3441" /><tag k="natural" v="saddle" /></node><node id="-112" version="1" lat="46.02688334090422" lon="7.690390750236725"><tag k="name" v="Unter Gabeljoch" /><tag k="ele" v="3315" /><tag k="natural" v="saddle" /></node><node id="-113" version="1" lat="47.41053703829406" lon="7.607211145984257"><tag k="name" v="Balmhöchi" /><tag k="ele" v="725" /><tag k="natural" v="saddle" /></node><node id="-114" version="1" lat="46.619729093547626" lon="8.88036536244772"><tag k="name" v="Fuorcla dallas Crunas" /><tag k="ele" v="2771" /><tag k="natural" v="saddle" /></node><node id="-115" version="1" lat="46.43798825336307" lon="8.309953519291785"><tag k="name" v="Griesgletscherpass" /><tag k="ele" v="3086" /><tag k="natural" v="saddle" /></node><node id="-116" version="1" lat="46.62147180714722" lon="8.14088887162911"><tag k="name" v="Bärglijoch" /><tag k="ele" v="3432" /><tag k="natural" v="saddle" /></node><node id="-117" version="1" lat="46.692374902399834" lon="7.576872267704505"><tag k="name" v="Reutiglücke" /><tag k="ele" v="1435" /><tag k="natural" v="saddle" /></node><node id="-118" version="1" lat="47.15973648504368" lon="9.126056563348664"><tag k="name" v="Oberfurggle" /><tag k="ele" v="1498" /><tag k="natural" v="saddle" /></node><node id="-119" version="1" lat="46.50572071047118" lon="9.658449438166238"><tag k="name" v="Sela da Muttariel" /><tag k="ele" v="2248" /><tag k="natural" v="saddle" /></node><node id="-120" version="1" lat="46.59072623126534" lon="8.831670079633362"><tag k="name" v="Fuorcla Vallatscha" /><tag k="ele" v="2639" /><tag k="natural" v="saddle" /></node><node id="-121" version="1" lat="46.48855744747511" lon="7.9130266818179855"><tag k="name" v="Grossjoch" /><tag k="ele" v="3560" /><tag k="natural" v="saddle" /></node><node id="-122" version="1" lat="46.38596078058087" lon="7.698706569248122"><tag k="name" v="Galmpass" /><tag k="ele" v="2866" /><tag k="natural" v="saddle" /></node><node id="-123" version="1" lat="46.918042015348725" lon="8.710940450519832"><tag k="name" v="Rossstocklücke" /><tag k="ele" v="2286" /><tag k="natural" v="saddle" /></node><node id="-124" version="1" lat="47.059158664918094" lon="9.584127986482683"><tag k="name" v="Demmerahöhi" /><tag k="ele" v="2243" /><tag k="natural" v="saddle" /></node><node id="-125" version="1" lat="46.68477024727221" lon="9.846289787690328"><tag k="name" v="Dukan Fürggli" /><tag k="ele" v="2837" /><tag k="natural" v="saddle" /></node><node id="-126" version="1" lat="46.49553634055748" lon="8.619781541758062"><tag k="name" v="Passo del Büsen" /><tag k="ele" v="2449" /><tag k="natural" v="saddle" /></node><node id="-127" version="1" lat="46.50051065428072" lon="8.380018397052481"><tag k="name" v="Blaslicke" /><tag k="ele" v="2794" /><tag k="natural" v="saddle" /></node><node id="-128" version="1" lat="46.90943245388408" lon="10.412200360167779"><tag k="name" v="Fuorcla d'Alp" /><tag k="ele" v="2808" /><tag k="natural" v="saddle" /></node><node id="-129" version="1" lat="46.9573969901133" lon="10.329087006649614"><tag k="name" v="Inner Viderjoch" /><tag k="ele" v="2689" /><tag k="natural" v="saddle" /></node><node id="-130" version="1" lat="46.40438876014345" lon="7.301166695725453"><tag k="name" v="Chrine" /><tag k="ele" v="1660" /><tag k="natural" v="saddle" /></node><node id="-131" version="1" lat="46.91656987369646" lon="10.419847108704825"><tag k="name" v="Fuorcla Saronna Gronda" /><tag k="ele" v="2934" /><tag k="natural" v="saddle" /></node><node id="-132" version="1" lat="46.0359419132127" lon="7.655649532388397"><tag k="name" v="Arbenjoch" /><tag k="ele" v="3543" /><tag k="natural" v="saddle" /></node><node id="-133" version="1" lat="45.987132919057" lon="7.446469141085007"><tag k="name" v="Col du Brenay" /><tag k="ele" v="3631" /><tag k="natural" v="saddle" /></node><node id="-134" version="1" lat="47.38516759305862" lon="7.886472445359673"><tag k="name" v="Wisnerhöchi" /><tag k="ele" v="779" /><tag k="natural" v="saddle" /></node><node id="-135" version="1" lat="46.52835490017086" lon="9.793836785967736"><tag k="name" v="Fuorcla Saluver" /><tag k="ele" v="2958" /><tag k="natural" v="saddle" /></node><node id="-136" version="1" lat="46.318738120886614" lon="8.179255437749925"><tag k="name" v="Schaflicka" /><tag k="ele" v="2750" /><tag k="natural" v="saddle" /></node><node id="-137" version="1" lat="46.67185342569336" lon="8.346633054278588"><tag k="name" v="Sacklimi" /><tag k="ele" v="2663" /><tag k="natural" v="saddle" /></node><node id="-138" version="1" lat="46.82525115401751" lon="8.587901904948458"><tag k="name" v="Bänderfurggi" /><tag k="ele" v="2390" /><tag k="natural" v="saddle" /></node><node id="-139" version="1" lat="46.842100827632166" lon="8.85206032568752"><tag k="name" v="Chammlijoch" /><tag k="ele" v="2996" /><tag k="natural" v="saddle" /></node><node id="-140" version="1" lat="46.39389176765967" lon="8.780730242107278"><tag k="name" v="Bocchetta di Campale" /><tag k="ele" v="2409" /><tag k="natural" v="saddle" /></node><node id="-141" version="1" lat="46.67461322585164" lon="10.318518978933234"><tag k="name" v="Fuorcla d'Astras" /><tag k="ele" v="2874" /><tag k="natural" v="saddle" /></node><node id="-142" version="1" lat="46.38997747954515" lon="7.807551766891012"><tag k="name" v="Schwarzi Licka" /><tag k="ele" v="2533" /><tag k="natural" v="saddle" /></node><node id="-143" version="1" lat="46.370271186117726" lon="7.319460475791538"><tag k="name" v="Schafhick" /><tag k="ele" v="2454" /><tag k="natural" v="saddle" /></node><node id="-144" version="1" lat="46.05228252986009" lon="7.679926079677507"><tag k="name" v="Col du Mountet" /><tag k="ele" v="3655" /><tag k="natural" v="saddle" /></node><node id="-145" version="1" lat="46.440443615447315" lon="7.216676238632207"><tag k="name" v="Trittlisattel" /><tag k="ele" v="1842" /><tag k="natural" v="saddle" /></node><node id="-146" version="1" lat="46.350185404657914" lon="7.350228006193065"><tag k="name" v="Gältelücke" /><tag k="ele" v="2757" /><tag k="natural" v="saddle" /></node><node id="-147" version="1" lat="46.5778984071489" lon="8.271240952038495"><tag k="name" v="Brandlammlicken" /><tag k="ele" v="2813" /><tag k="natural" v="saddle" /></node><node id="-148" version="1" lat="46.01054282070884" lon="7.382606559693749"><tag k="name" v="Col de la Luette" /><tag k="ele" v="3369" /><tag k="natural" v="saddle" /></node><node id="-149" version="1" lat="46.609538721076895" lon="8.889310659150873"><tag k="name" v="Fuorcla Cristallina" /><tag k="ele" v="3003" /><tag k="natural" v="saddle" /></node><node id="-150" version="1" lat="47.487884972439105" lon="7.797651209514701"><tag k="name" v="Grimstelucke" /><tag k="ele" v="599" /><tag k="natural" v="saddle" /></node><node id="-151" version="1" lat="46.84801820485089" lon="10.281489319095263"><tag k="name" v="Fuorcla Spadla" /><tag k="ele" v="2725" /><tag k="natural" v="saddle" /></node><node id="-152" version="1" lat="46.84783673828847" lon="8.514339306938002"><tag k="name" v="Schlossstocklücke" /><tag k="ele" v="2664" /><tag k="natural" v="saddle" /></node><node id="-153" version="1" lat="46.313939501011234" lon="8.839106199248059"><tag k="name" v="Bassa di Motto" /><tag k="ele" v="2276" /><tag k="natural" v="saddle" /></node><node id="-154" version="1" lat="46.305009526863046" lon="8.888091265358415"><tag k="name" v="Bocchetta di Fümègna" /><tag k="ele" v="2411" /><tag k="natural" v="saddle" /></node><node id="-155" version="1" lat="46.41048595200108" lon="7.871768249924704"><tag k="name" v="Breitlauijoch" /><tag k="ele" v="3305" /><tag k="natural" v="saddle" /></node><node id="-156" version="1" lat="46.468337943022625" lon="7.876395978373027"><tag k="name" v="Burstsattel" /><tag k="ele" v="3163" /><tag k="natural" v="saddle" /></node><node id="-157" version="1" lat="46.84775145498945" lon="10.073658674510426"><tag k="name" v="Chremersattel" /><tag k="ele" v="2783" /><tag k="natural" v="saddle" /></node><node id="-158" version="1" lat="46.57231120452423" lon="9.861850325643333"><tag k="name" v="Fuorcla Taverna" /><tag k="ele" v="2737" /><tag k="natural" v="saddle" /></node><node id="-159" version="1" lat="46.69507347155067" lon="7.419143919518842"><tag k="name" v="Alpiglegalm" /><tag k="ele" v="2016" /><tag k="natural" v="saddle" /></node><node id="-160" version="1" lat="47.02410959196692" lon="8.508085481282693"><tag k="name" v="Hinder Dosse" /><tag k="ele" v="1545" /><tag k="natural" v="saddle" /></node><node id="-161" version="1" lat="46.756106019174176" lon="8.776917468753544"><tag k="name" v="Staldenlücke" /><tag k="ele" v="2758" /><tag k="natural" v="saddle" /></node><node id="-162" version="1" lat="46.02886227277988" lon="7.452285842153157"><tag k="name" v="Col de la Forclette" /><tag k="ele" v="2869" /><tag k="natural" v="saddle" /></node><node id="-163" version="1" lat="46.79993765194202" lon="8.716444329912559"><tag k="name" v="Windgällenlücke" /><tag k="ele" v="2721" /><tag k="natural" v="saddle" /></node><node id="-164" version="1" lat="46.338303403242236" lon="10.105678508308165"><tag k="name" v="Forcola di Rosso" /><tag k="ele" v="2671" /><tag k="natural" v="saddle" /></node><node id="-165" version="1" lat="46.71071608802685" lon="8.685740470287856"><tag k="name" v="Schijerlücke" /><tag k="ele" v="2700" /><tag k="natural" v="saddle" /></node><node id="-166" version="1" lat="46.05135609480717" lon="6.909883208893228"><tag k="name" v="Brèche du Perron" /><tag k="ele" v="2496" /><tag k="natural" v="saddle" /></node><node id="-167" version="1" lat="46.60164916746102" lon="9.702002534020975"><tag k="name" v="Furschella" /><tag k="ele" v="2870" /><tag k="natural" v="saddle" /></node><node id="-168" version="1" lat="46.76165057147564" lon="10.443775212815252"><tag k="name" v="Fuorcla da Rasass" /><tag k="ele" v="2716" /><tag k="natural" v="saddle" /></node><node id="-169" version="1" lat="46.526104618137296" lon="9.020427510459262"><tag k="name" v="Bocca di Fornee" /><tag k="ele" v="2885" /><tag k="natural" v="saddle" /></node><node id="-170" version="1" lat="46.86968776464674" lon="10.247841142144944"><tag k="name" v="Fuorcla da Tasna" /><tag k="ele" v="2807" /><tag k="natural" v="saddle" /></node><node id="-171" version="1" lat="46.42910625885148" lon="8.749918454524767"><tag k="name" v="Bocchetta di Staletto" /><tag k="ele" v="2653" /><tag k="natural" v="saddle" /></node><node id="-172" version="1" lat="46.39523625205402" lon="9.0561591783429"><tag k="name" v="Bocchetta di Bòrsgen" /><tag k="ele" v="2222" /><tag k="natural" v="saddle" /></node><node id="-173" version="1" lat="45.956412789593834" lon="7.424333717773938"><tag k="name" v="Col de la Petite Lire" /><tag k="ele" v="3316" /><tag k="natural" v="saddle" /></node><node id="-174" version="1" lat="46.61654022859705" lon="10.137635016997091"><tag k="name" v="Fuorcla da l'Acqua" /><tag k="ele" v="2885" /><tag k="natural" v="saddle" /></node><node id="-175" version="1" lat="47.27209128010979" lon="7.5839272238936655"><tag k="name" v="Höch-Chrütz" /><tag k="ele" v="1050" /><tag k="natural" v="saddle" /></node><node id="-176" version="1" lat="46.5564199774983" lon="8.399665656525187"><tag k="name" v="Tällilücke" /><tag k="ele" v="2720" /><tag k="natural" v="saddle" /></node><node id="-177" version="1" lat="46.23865111841625" lon="7.159255112031108"><tag k="name" v="Pas de Chamosentse" /><tag k="ele" v="2454" /><tag k="natural" v="saddle" /></node><node id="-178" version="1" lat="46.35591952665253" lon="7.854430828041039"><tag k="name" v="Wiwannijoch" /><tag k="ele" v="2851" /><tag k="natural" v="saddle" /></node><node id="-179" version="1" lat="46.50174748648022" lon="8.061719716141202"><tag k="name" v="Fülbärgpass" /><tag k="ele" v="3171" /><tag k="natural" v="saddle" /></node><node id="-180" version="1" lat="46.212586798063576" lon="7.530957209876711"><tag k="name" v="Col de la Brinta" /><tag k="ele" v="2600" /><tag k="natural" v="saddle" /></node><node id="-181" version="1" lat="46.919423977637386" lon="10.379120829229564"><tag k="name" v="Cuolmen Maisas" /><tag k="ele" v="2709" /><tag k="natural" v="saddle" /></node><node id="-182" version="1" lat="46.76891327160523" lon="8.832896714133698"><tag k="name" v="Tschingellücke" /><tag k="ele" v="2768" /><tag k="natural" v="saddle" /></node><node id="-183" version="1" lat="46.39717077940409" lon="6.9930879120699085"><tag k="name" v="Col d'Ayerne" /><tag k="ele" v="1460" /><tag k="natural" v="saddle" /></node><node id="-184" version="1" lat="46.3447449789944" lon="9.68249835713212"><tag k="name" v="Furcela dal Bacun" /><tag k="ele" v="3105" /><tag k="natural" v="saddle" /></node><node id="-185" version="1" lat="46.243920399946575" lon="6.8501550601743855"><tag k="name" v="Pas de Morgins" /><tag k="ele" v="1374" /><tag k="natural" v="saddle" /></node><node id="-186" version="1" lat="46.37708144480334" lon="7.811883397102904"><tag k="name" v="Jolilicka" /><tag k="ele" v="3199" /><tag k="natural" v="saddle" /></node><node id="-187" version="1" lat="47.037329514881854" lon="9.574435839871638"><tag k="name" v="Hohi Furgga" /><tag k="ele" v="2331" /><tag k="natural" v="saddle" /></node><node id="-188" version="1" lat="46.27264218214457" lon="8.901721274896067"><tag k="name" v="Bocchetta del Vènn" /><tag k="ele" v="2316" /><tag k="natural" v="saddle" /></node><node id="-189" version="1" lat="46.805428026468206" lon="10.066383513618359"><tag k="name" v="Fuorcla dal Linard" /><tag k="ele" v="2939" /><tag k="natural" v="saddle" /></node><node id="-190" version="1" lat="46.113525861745416" lon="9.052851494229108"><tag k="name" v="Passo di Pozzaiolo" /><tag k="ele" v="1686" /><tag k="natural" v="saddle" /></node><node id="-191" version="1" lat="46.58060267779767" lon="9.316256933787272"><tag k="name" v="Teurilücke" /><tag k="ele" v="2775" /><tag k="natural" v="saddle" /></node><node id="-192" version="1" lat="46.77421583276434" lon="8.4157774830833"><tag k="name" v="Hinteres Titlisjoch" /><tag k="ele" v="2696" /><tag k="natural" v="saddle" /></node><node id="-193" version="1" lat="46.01415316349321" lon="7.090339727134517"><tag k="name" v="Col de la Breya" /><tag k="ele" v="2400" /><tag k="natural" v="saddle" /></node><node id="-194" version="1" lat="46.556324392618194" lon="10.003110317549213"><tag k="name" v="Fuorcla Vaüglia" /><tag k="ele" v="2859" /><tag k="natural" v="saddle" /></node><node id="-195" version="1" lat="47.14058666169029" lon="9.623157665619242"><tag k="name" v="Guschgfieljoch" /><tag k="ele" v="1862" /><tag k="natural" v="saddle" /></node><node id="-196" version="1" lat="46.366233163363574" lon="8.859131037574972"><tag k="name" v="Bassa del Mottone" /><tag k="ele" v="2354" /><tag k="natural" v="saddle" /></node><node id="-197" version="1" lat="46.43477491507899" lon="9.899441390231024"><tag k="name" v="Fuorcla dals Lejets" /><tag k="ele" v="3017" /><tag k="natural" v="saddle" /></node><node id="-198" version="1" lat="46.380150582974274" lon="9.904949188325961"><tag k="name" v="Fuorcla Scerscen-Bernina" /><tag k="ele" v="3882" /><tag k="natural" v="saddle" /></node><node id="-199" version="1" lat="47.09293878305808" lon="8.667092389921855"><tag k="name" v="Sattel" /><tag k="ele" v="931" /><tag k="natural" v="saddle" /></node><node id="-200" version="1" lat="46.52949780170945" lon="9.126071186440448"><tag k="name" v="Rotgrätlilücke" /><tag k="ele" v="2888" /><tag k="natural" v="saddle" /></node><node id="-201" version="1" lat="46.26518756615738" lon="8.573946122178862"><tag k="name" v="La Mulinèra" /><tag k="ele" v="2153" /><tag k="natural" v="saddle" /></node><node id="-202" version="1" lat="46.63724135463692" lon="9.145020277120995"><tag k="name" v="Fuorcla Serenastga" /><tag k="ele" v="2634" /><tag k="natural" v="saddle" /></node><node id="-203" version="1" lat="46.45111791529845" lon="7.197396191985861"><tag k="name" v="Col de la Videman" /><tag k="ele" v="2033" /><tag k="natural" v="saddle" /></node><node id="-204" version="1" lat="46.74153807336196" lon="8.757789322270337"><tag k="name" v="Oberalplücke" /><tag k="ele" v="2759" /><tag k="natural" v="saddle" /></node><node id="-205" version="1" lat="46.73030528383129" lon="9.94422442962435"><tag k="name" v="Schwarzhorafurgga" /><tag k="ele" v="2879" /><tag k="natural" v="saddle" /></node><node id="-206" version="1" lat="46.020514647066605" lon="7.911603485520735"><tag k="name" v="Fluchtpass" /><tag k="ele" v="3724" /><tag k="natural" v="saddle" /></node><node id="-207" version="1" lat="47.516984974616165" lon="7.837583129777352"><tag k="name" v="Wintersingeregg" /><tag k="ele" v="504" /><tag k="natural" v="saddle" /></node><node id="-208" version="1" lat="46.20263666485144" lon="8.791126280245189"><tag k="name" v="Bassa di Cardada" /><tag k="ele" v="1611" /><tag k="natural" v="saddle" /></node><node id="-209" version="1" lat="47.42893004643211" lon="7.9932991071069095"><tag k="name" v="Salhöhe" /><tag k="ele" v="761" /><tag k="natural" v="saddle" /></node><node id="-210" version="1" lat="46.521595847221214" lon="7.863715596635365"><tag k="name" v="Schneewigi Licka" /><tag k="ele" v="2359" /><tag k="natural" v="saddle" /></node><node id="-211" version="1" lat="46.43648313034076" lon="9.088506549495454"><tag k="name" v="Bocchetta della Cima Rossa" /><tag k="ele" v="2886" /><tag k="natural" v="saddle" /></node><node id="-212" version="1" lat="46.61090180988335" lon="8.880456342411303"><tag k="name" v="Fuorcla Puzzetta" /><tag k="ele" v="3036" /><tag k="natural" v="saddle" /></node><node id="-213" version="1" lat="46.704703831448484" lon="9.82836713284304"><tag k="name" v="Bäretällifurgga" /><tag k="ele" v="2745" /><tag k="natural" v="saddle" /></node><node id="-214" version="1" lat="46.53574889664493" lon="9.59025411529481"><tag k="name" v="Fuorcla da Spegnas" /><tag k="ele" v="2653" /><tag k="natural" v="saddle" /></node><node id="-215" version="1" lat="46.742542350247" lon="8.872916854872917"><tag k="name" v="Siala d'Alpetta" /><tag k="ele" v="2451" /><tag k="natural" v="saddle" /></node><node id="-216" version="1" lat="46.508084139289615" lon="9.102220736747281"><tag k="name" v="Hohbärglücka" /><tag k="ele" v="2914" /><tag k="natural" v="saddle" /></node><node id="-217" version="1" lat="46.01796167454164" lon="7.6499746934987405"><tag k="name" v="Äbilücke" /><tag k="ele" v="3321" /><tag k="natural" v="saddle" /></node><node id="-218" version="1" lat="46.17557024847017" lon="7.660683937261012"><tag k="name" v="Col de l'Omen Roso" /><tag k="ele" v="3000" /><tag k="natural" v="saddle" /></node><node id="-219" version="1" lat="46.04116846372687" lon="7.608173547606805"><tag k="name" v="Col de la Dent Blanche" /><tag k="ele" v="3530" /><tag k="natural" v="saddle" /></node><node id="-220" version="1" lat="46.40504775002756" lon="7.911309345676156"><tag k="name" v="Baltschiederlicka" /><tag k="ele" v="3219" /><tag k="natural" v="saddle" /></node><node id="-221" version="1" lat="46.50296456502328" lon="9.532039935934725"><tag k="name" v="Fuorcla Curtegns" /><tag k="ele" v="2658" /><tag k="natural" v="saddle" /></node><node id="-222" version="1" lat="46.06589711125071" lon="7.431733902769"><tag k="name" v="Col Nord des Darbonires" /><tag k="ele" v="3363" /><tag k="natural" v="saddle" /></node><node id="-223" version="1" lat="46.88784241393712" lon="9.258213410008606"><tag k="name" v="Fuorcla Raschaglius" /><tag k="ele" v="2554" /><tag k="natural" v="saddle" /></node><node id="-224" version="1" lat="46.57853659667003" lon="9.265201749457155"><tag k="name" v="Safierberg" /><tag k="ele" v="2483" /><tag k="natural" v="saddle" /></node><node id="-225" version="1" lat="46.24969812737392" lon="8.025070174079346"><tag k="name" v="Simplonpass" /><tag k="ele" v="1996" /><tag k="natural" v="saddle" /></node><node id="-226" version="1" lat="46.66355694897288" lon="9.409978675700872"><tag k="name" v="Farcletta da Dasch" /><tag k="ele" v="2171" /><tag k="natural" v="saddle" /></node><node id="-227" version="1" lat="46.42189625748664" lon="7.204160783543191"><tag k="name" v="Basset de l'Arole" /><tag k="ele" v="2199" /><tag k="natural" v="saddle" /></node><node id="-228" version="1" lat="46.540438926466095" lon="8.07147297147901"><tag k="name" v="Kleine Grünhornlücke" /><tag k="ele" v="3740" /><tag k="natural" v="saddle" /></node><node id="-229" version="1" lat="46.64122807316999" lon="8.136286669595707"><tag k="name" v="Wellhornsattel" /><tag k="ele" v="3195" /><tag k="natural" v="saddle" /></node><node id="-230" version="1" lat="46.55529962925857" lon="8.733934959806298"><tag k="name" v="Bocchetta della Miniera" /><tag k="ele" v="2541" /><tag k="natural" v="saddle" /></node><node id="-231" version="1" lat="46.5501889759707" lon="10.328230450264172"><tag k="name" v="Bocchetta Cancano" /><tag k="ele" v="2810" /><tag k="natural" v="saddle" /></node><node id="-232" version="1" lat="46.572325437714284" lon="9.826719618895117"><tag k="name" v="Fuorcla Melnetta" /><tag k="ele" v="2630" /><tag k="natural" v="saddle" /></node><node id="-233" version="1" lat="46.68396582960877" lon="8.455962391146974"><tag k="name" v="Chelenalplücke" /><tag k="ele" v="3091" /><tag k="natural" v="saddle" /></node><node id="-234" version="1" lat="46.700372101988116" lon="10.218613855974588"><tag k="name" v="Fuorcla Pedrus" /><tag k="ele" v="2813" /><tag k="natural" v="saddle" /></node><node id="-235" version="1" lat="46.22836949502484" lon="10.097541040576372"><tag k="name" v="Col da Salarsa" /><tag k="ele" v="2234" /><tag k="natural" v="saddle" /></node><node id="-236" version="1" lat="46.49983566946854" lon="7.780838030542539"><tag k="name" v="Blüemlisalpsattel" /><tag k="ele" v="3119" /><tag k="natural" v="saddle" /></node><node id="-237" version="1" lat="46.51326740559117" lon="9.929864300109273"><tag k="name" v="Fuorcla dal Mort" /><tag k="ele" v="2726" /><tag k="natural" v="saddle" /></node><node id="-238" version="1" lat="46.52215575468696" lon="9.969128820522172"><tag k="name" v="Pass Trid" /><tag k="ele" v="2897" /><tag k="natural" v="saddle" /></node><node id="-239" version="1" lat="46.5570252243393" lon="8.966733434405107"><tag k="name" v="Forcadona" /><tag k="ele" v="1996" /><tag k="natural" v="saddle" /></node><node id="-240" version="1" lat="45.94209164174493" lon="7.036993455482511"><tag k="name" v="Brèche d'Argentière" /><tag k="ele" v="3508" /><tag k="natural" v="saddle" /></node><node id="-241" version="1" lat="46.48238341286896" lon="10.043532271883759"><tag k="name" v="Fuorcletta" /><tag k="ele" v="2892" /><tag k="natural" v="saddle" /></node><node id="-242" version="1" lat="46.947234314552546" lon="9.312990848936668"><tag k="name" v="Ritschlifurggla" /><tag k="ele" v="2437" /><tag k="natural" v="saddle" /></node><node id="-243" version="1" lat="46.67772277347013" lon="8.021127443424584"><tag k="name" v="Mittagschrinne" /><tag k="ele" v="2564" /><tag k="natural" v="saddle" /></node><node id="-244" version="1" lat="46.64333469409762" lon="9.87718981972626"><tag k="name" v="Fuorcla da Funtauna" /><tag k="ele" v="2595" /><tag k="natural" v="saddle" /></node><node id="-245" version="1" lat="46.68914992924993" lon="8.398628665499162"><tag k="name" v="Tierbergsattel" /><tag k="ele" v="3308" /><tag k="natural" v="saddle" /></node><node id="-246" version="1" lat="46.582466617575356" lon="8.247787016458384"><tag k="name" v="Fellenberglicken" /><tag k="ele" v="2995" /><tag k="natural" v="saddle" /></node><node id="-247" version="1" lat="46.09908579903876" lon="7.273777908653947"><tag k="name" v="Col des Vaux" /><tag k="ele" v="2703" /><tag k="natural" v="saddle" /></node><node id="-248" version="1" lat="46.86512749896417" lon="9.657484635440378"><tag k="name" v="Fürggli" /><tag k="ele" v="2288" /><tag k="natural" v="saddle" /></node><node id="-249" version="1" lat="47.08438892113547" lon="9.173038778894979"><tag k="name" v="Furggeli" /><tag k="ele" v="1817" /><tag k="natural" v="saddle" /></node><node id="-250" version="1" lat="45.99727883522859" lon="7.041956115112623"><tag k="name" v="Col d'Orny" /><tag k="ele" v="3075" /><tag k="natural" v="saddle" /></node><node id="-251" version="1" lat="45.89128580756502" lon="7.232708665271088"><tag k="name" v="Col d'Annibal" /><tag k="ele" v="2991" /><tag k="natural" v="saddle" /></node><node id="-252" version="1" lat="46.59402874671543" lon="8.113532636352767"><tag k="name" v="Nässijoch" /><tag k="ele" v="3724" /><tag k="natural" v="saddle" /></node><node id="-253" version="1" lat="46.995798169949346" lon="7.870173241050156"><tag k="name" v="Hohmattgätterli" /><tag k="ele" v="1291" /><tag k="natural" v="saddle" /></node><node id="-254" version="1" lat="46.528591209113614" lon="8.24876800605996"><tag k="name" v="Trützipass" /><tag k="ele" v="2825" /><tag k="natural" v="saddle" /></node><node id="-255" version="1" lat="46.8157404358921" lon="8.73756423411283"><tag k="name" v="Zinggen" /><tag k="ele" v="2335" /><tag k="natural" v="saddle" /></node><node id="-256" version="1" lat="46.86227640061488" lon="10.190252243059554"><tag k="name" v="Fuorcla Chalaus" /><tag k="ele" v="2999" /><tag k="natural" v="saddle" /></node><node id="-257" version="1" lat="46.67555525832954" lon="10.305439069953875"><tag k="name" v="Fuorcla Val Nüglia" /><tag k="ele" v="2846" /><tag k="natural" v="saddle" /></node><node id="-258" version="1" lat="46.586248447419344" lon="10.379903380860283"><tag k="name" v="Juet" /><tag k="ele" v="2255" /><tag k="natural" v="saddle" /></node><node id="-259" version="1" lat="47.017073674318624" lon="9.03602108685817"><tag k="name" v="Furggle" /><tag k="ele" v="2057" /><tag k="natural" v="saddle" /></node><node id="-260" version="1" lat="46.780551637602855" lon="8.30032513501185"><tag k="name" v="Chringen" /><tag k="ele" v="2152" /><tag k="natural" v="saddle" /></node><node id="-261" version="1" lat="47.15352316052606" lon="8.605209911886348"><tag k="name" v="Sätteli" /><tag k="ele" v="1057" /><tag k="natural" v="saddle" /></node><node id="-262" version="1" lat="46.99088491171483" lon="10.367948561583438"><tag k="name" v="Westliches Visnitzjoch" /><tag k="ele" v="2673" /><tag k="natural" v="saddle" /></node><node id="-263" version="1" lat="46.44504856325459" lon="8.789818559270929"><tag k="name" v="Passo delle Rosse" /><tag k="ele" v="2226" /><tag k="natural" v="saddle" /></node><node id="-264" version="1" lat="46.85596807207255" lon="8.542789041241258"><tag k="name" v="Rotstocksattel" /><tag k="ele" v="2733" /><tag k="natural" v="saddle" /></node><node id="-265" version="1" lat="46.31353675586324" lon="9.019980598864063"><tag k="name" v="Bocchetta di Salosa" /><tag k="ele" v="1773" /><tag k="natural" v="saddle" /></node><node id="-266" version="1" lat="46.20971642611728" lon="7.661289119998133"><tag k="name" v="Gämschwart" /><tag k="ele" v="2790" /><tag k="natural" v="saddle" /></node><node id="-267" version="1" lat="46.20158765579226" lon="7.131125568018622"><tag k="name" v="La Forcle" /><tag k="ele" v="2166" /><tag k="natural" v="saddle" /></node><node id="-268" version="1" lat="46.6317306669474" lon="7.28410428221338"><tag k="name" v="Euschelspass" /><tag k="ele" v="1567" /><tag k="natural" v="saddle" /></node><node id="-269" version="1" lat="46.40571420541555" lon="8.929097849539751"><tag k="name" v="Forcarella" /><tag k="ele" v="2017" /><tag k="natural" v="saddle" /></node><node id="-270" version="1" lat="47.1725134477154" lon="9.130246196237948"><tag k="name" v="Mättler Höhi" /><tag k="ele" v="1578" /><tag k="natural" v="saddle" /></node><node id="-271" version="1" lat="46.05997462934214" lon="7.7111788243912995"><tag k="name" v="Unter Äschjoch" /><tag k="ele" v="3550" /><tag k="natural" v="saddle" /></node><node id="-272" version="1" lat="47.38013302586966" lon="7.657766057863876"><tag k="name" v="Ulmethöchi" /><tag k="ele" v="973" /><tag k="natural" v="saddle" /></node><node id="-273" version="1" lat="46.10411293130197" lon="8.881034340488064"><tag k="name" v="Bocchetta di Campo" /><tag k="ele" v="1770" /><tag k="natural" v="saddle" /></node><node id="-274" version="1" lat="46.45435235602043" lon="8.344436870747888"><tag k="name" v="Vordri Sulzlicke" /><tag k="ele" v="2721" /><tag k="natural" v="saddle" /></node><node id="-275" version="1" lat="46.794461832600064" lon="8.59807840426672"><tag k="name" v="Hundtschingelfurggi" /><tag k="ele" v="2365" /><tag k="natural" v="saddle" /></node><node id="-276" version="1" lat="46.695591689310916" lon="8.687483158489748"><tag k="name" v="Fuorcla da Giuv" /><tag k="ele" v="2956" /><tag k="natural" v="saddle" /></node><node id="-277" version="1" lat="46.34845640451291" lon="6.788483341955026"><tag k="name" v="Pas de Lovenex" /><tag k="ele" v="1850" /><tag k="natural" v="saddle" /></node><node id="-278" version="1" lat="46.85281774326798" lon="8.330579248162637"><tag k="name" v="Lachengrätli" /><tag k="ele" v="1785" /><tag k="natural" v="saddle" /></node><node id="-279" version="1" lat="46.41099449641556" lon="10.08339663233627"><tag k="name" v="Forcula da Cardan" /><tag k="ele" v="2682" /><tag k="natural" v="saddle" /></node><node id="-280" version="1" lat="46.94725342971147" lon="8.716584797568423"><tag k="name" v="Höchi" /><tag k="ele" v="1487" /><tag k="natural" v="saddle" /></node><node id="-281" version="1" lat="46.66880653714942" lon="8.402187681652002"><tag k="name" v="Südliches Maasplangjoch" /><tag k="ele" v="3283" /><tag k="natural" v="saddle" /></node><node id="-282" version="1" lat="46.73522572185443" lon="8.57700778065574"><tag k="name" v="Lückli" /><tag k="ele" v="2405" /><tag k="natural" v="saddle" /></node><node id="-283" version="1" lat="46.776850849426154" lon="8.939178576847963"><tag k="name" v="Fuorcla Posta Biala" /><tag k="ele" v="2844" /><tag k="natural" v="saddle" /></node><node id="-284" version="1" lat="46.069828266168" lon="7.588979489096873"><tag k="name" v="Col des Rosses" /><tag k="ele" v="3499" /><tag k="natural" v="saddle" /></node><node id="-285" version="1" lat="47.12719646543937" lon="7.001243803438002"><tag k="name" v="Col des Pontins" /><tag k="ele" v="1119" /><tag k="natural" v="saddle" /></node><node id="-286" version="1" lat="47.13117363968287" lon="6.888741199950218"><tag k="name" v="Le Crêt de la Borne" /><tag k="ele" v="1069" /><tag k="natural" v="saddle" /></node><node id="-287" version="1" lat="46.614561926967056" lon="10.097409863764321"><tag k="name" v="Fuorcla Val Sassa" /><tag k="ele" v="2857" /><tag k="natural" v="saddle" /></node><node id="-288" version="1" lat="45.98745728382047" lon="7.5582738025167995"><tag k="name" v="Col des Bouquetins" /><tag k="ele" v="3344" /><tag k="natural" v="saddle" /></node><node id="-289" version="1" lat="46.69737735131777" lon="8.401246181662694"><tag k="name" v="Tierberglücke" /><tag k="ele" v="2971" /><tag k="natural" v="saddle" /></node><node id="-290" version="1" lat="46.64405472963717" lon="8.334214065874948"><tag k="name" v="Üssri Garwiidilimi" /><tag k="ele" v="2685" /><tag k="natural" v="saddle" /></node><node id="-291" version="1" lat="47.1718026314273" lon="9.162969904731401"><tag k="name" v="Hinder Höhi" /><tag k="ele" v="1416" /><tag k="natural" v="saddle" /></node><node id="-292" version="1" lat="46.75496481453558" lon="9.720316773653643"><tag k="name" v="Bäretalerfurgga" /><tag k="ele" v="2559" /><tag k="natural" v="saddle" /></node><node id="-293" version="1" lat="46.36974973949203" lon="6.981344543686572"><tag k="name" v="Col de Tompey" /><tag k="ele" v="1754" /><tag k="natural" v="saddle" /></node><node id="-294" version="1" lat="46.463929852578914" lon="9.135839968297145"><tag k="name" v="Cantun de l'Ungheres" /><tag k="ele" v="2772" /><tag k="natural" v="saddle" /></node><node id="-295" version="1" lat="46.91226091990949" lon="8.18761054197429"><tag k="name" v="Wenglihals" /><tag k="ele" v="1560" /><tag k="natural" v="saddle" /></node><node id="-296" version="1" lat="47.15108287350276" lon="9.552662650074373"><tag k="name" v="Gafleisattel" /><tag k="ele" v="1856" /><tag k="natural" v="saddle" /></node><node id="-297" version="1" lat="46.382735834399206" lon="7.562765235747463"><tag k="name" v="Schneejoch" /><tag k="ele" v="3017" /><tag k="natural" v="saddle" /></node><node id="-298" version="1" lat="46.7812407304368" lon="7.994955137201639"><tag k="name" v="Wannepass" /><tag k="ele" v="2070" /><tag k="natural" v="saddle" /></node><node id="-299" version="1" lat="47.074655214041684" lon="9.234410870580573"><tag k="name" v="Chrüzen" /><tag k="ele" v="1904" /><tag k="natural" v="saddle" /></node><node id="-300" version="1" lat="46.45801883577944" lon="7.997655815721451"><tag k="name" v="Mittelaletschlücke" /><tag k="ele" v="3699" /><tag k="natural" v="saddle" /></node><node id="-301" version="1" lat="46.608868339510565" lon="8.2442136477923"><tag k="name" v="Gröebenjoch" /><tag k="ele" v="2955" /><tag k="natural" v="saddle" /></node><node id="-302" version="1" lat="46.5413361727107" lon="10.462274497357681"><tag k="name" v="Sella da Piz Cotschen" /><tag k="ele" v="2923" /><tag k="natural" v="saddle" /></node><node id="-303" version="1" lat="46.75933747657839" lon="8.7790791939919"><tag k="name" v="Bänderlücke" /><tag k="ele" v="2761" /><tag k="natural" v="saddle" /></node><node id="-304" version="1" lat="47.04964734871457" lon="8.830456040896863"><tag k="name" v="Tierfäderenegg" /><tag k="ele" v="1431" /><tag k="natural" v="saddle" /></node><node id="-305" version="1" lat="46.85275862439957" lon="10.092205749917737"><tag k="name" v="Egghornlücke" /><tag k="ele" v="3047" /><tag k="natural" v="saddle" /></node><node id="-306" version="1" lat="46.52358800449852" lon="7.97555090555293"><tag k="name" v="Louwitor" /><tag k="ele" v="3658" /><tag k="natural" v="saddle" /></node><node id="-307" version="1" lat="46.090579117810854" lon="7.460458364678296"><tag k="name" v="Le Bèche de la Cretta" /><tag k="ele" v="2869" /><tag k="natural" v="saddle" /></node><node id="-308" version="1" lat="46.40441027287079" lon="8.754536979756045"><tag k="name" v="Bassa del Barone" /><tag k="ele" v="2538" /><tag k="natural" v="saddle" /></node><node id="-309" version="1" lat="47.03341467311435" lon="9.127556176059484"><tag k="name" v="Heustockfurggel" /><tag k="ele" v="2263" /><tag k="natural" v="saddle" /></node><node id="-310" version="1" lat="46.64918116880085" lon="9.023587244065183"><tag k="name" v="Fuorcla da Ramosa" /><tag k="ele" v="2650" /><tag k="natural" v="saddle" /></node><node id="-311" version="1" lat="46.029982605645664" lon="7.367915348006631"><tag k="name" v="Col du Vasevay" /><tag k="ele" v="3234" /><tag k="natural" v="saddle" /></node><node id="-312" version="1" lat="46.782651379796015" lon="8.559137501411277"><tag k="name" v="Kröntenlücke" /><tag k="ele" v="2821" /><tag k="natural" v="saddle" /></node><node id="-313" version="1" lat="46.49703163702274" lon="8.092512025946645"><tag k="name" v="Schönbühljoch" /><tag k="ele" v="3723" /><tag k="natural" v="saddle" /></node><node id="-314" version="1" lat="46.50245299137693" lon="8.174014054722813"><tag k="name" v="Bieligerlicke" /><tag k="ele" v="3144" /><tag k="natural" v="saddle" /></node><node id="-315" version="1" lat="46.25426499513983" lon="8.930332146831855"><tag k="name" v="Bocchetta del Scengiurìn" /><tag k="ele" v="2091" /><tag k="natural" v="saddle" /></node><node id="-316" version="1" lat="46.55808452603398" lon="8.721598256991305"><tag k="name" v="Bocchetta degli Oréi" /><tag k="ele" v="2446" /><tag k="natural" v="saddle" /></node><node id="-317" version="1" lat="46.64134903274862" lon="9.33958523778286"><tag k="name" v="Furcletta" /><tag k="ele" v="2433" /><tag k="natural" v="saddle" /></node><node id="-318" version="1" lat="46.753442561154664" lon="9.558486896111008"><tag k="name" v="Lenzerheide" /><tag k="ele" v="1549" /><tag k="natural" v="saddle" /></node><node id="-319" version="1" lat="46.620718472395126" lon="9.061549458932188"><tag k="name" v="Fuorcla da Negias" /><tag k="ele" v="2399" /><tag k="natural" v="saddle" /></node><node id="-320" version="1" lat="46.91143754302817" lon="10.377449009524744"><tag k="name" v="Rossbodenjoch" /><tag k="ele" v="2744" /><tag k="natural" v="saddle" /></node><node id="-321" version="1" lat="46.49601668621872" lon="9.499612560763099"><tag k="name" v="Plattner Lücka" /><tag k="ele" v="2638" /><tag k="natural" v="saddle" /></node><node id="-322" version="1" lat="46.19497317626133" lon="7.660995909495874"><tag k="name" v="Col de Vijivi" /><tag k="ele" v="2916" /><tag k="natural" v="saddle" /></node><node id="-323" version="1" lat="46.6588258765678" lon="8.170431955875854"><tag k="name" v="Ürbachsattel" /><tag k="ele" v="2489" /><tag k="natural" v="saddle" /></node><node id="-324" version="1" lat="46.63933679446129" lon="8.33357427237269"><tag k="name" v="Indri Garwiidilimi" /><tag k="ele" v="2680" /><tag k="natural" v="saddle" /></node><node id="-325" version="1" lat="46.60258853844186" lon="8.042154468027121"><tag k="name" v="Obre Sattel" /><tag k="ele" v="2053" /><tag k="natural" v="saddle" /></node><node id="-326" version="1" lat="46.005368577282795" lon="7.527383380145984"><tag k="name" v="Col de Bertol" /><tag k="ele" v="3265" /><tag k="natural" v="saddle" /></node><node id="-327" version="1" lat="46.6870006178494" lon="8.444463105808046"><tag k="name" v="Sustenlimi" /><tag k="ele" v="3078" /><tag k="natural" v="saddle" /></node><node id="-328" version="1" lat="46.819082558512655" lon="8.790710140805047"><tag k="name" v="Ruchchälenpass" /><tag k="ele" v="2611" /><tag k="natural" v="saddle" /></node><node id="-329" version="1" lat="46.74046333603035" lon="10.385332853506489"><tag k="name" v="Fuorcla Cornet" /><tag k="ele" v="2853" /><tag k="natural" v="saddle" /></node><node id="-330" version="1" lat="46.77814419709284" lon="8.505589122983318"><tag k="name" v="Chüefadpass" /><tag k="ele" v="2871" /><tag k="natural" v="saddle" /></node><node id="-331" version="1" lat="46.36035417381163" lon="9.028725520009393"><tag k="name" v="Forcarella di Cava" /><tag k="ele" v="2090" /><tag k="natural" v="saddle" /></node><node id="-332" version="1" lat="46.48223239491432" lon="7.895703379306204"><tag k="name" v="Schmadrijoch" /><tag k="ele" v="3316" /><tag k="natural" v="saddle" /></node><node id="-333" version="1" lat="47.04247917774216" lon="8.68550579211311"><tag k="name" v="Griggeli" /><tag k="ele" v="1669" /><tag k="natural" v="saddle" /></node><node id="-334" version="1" lat="46.52161331595881" lon="8.179734683762181"><tag k="name" v="Oberaarrotjoch" /><tag k="ele" v="3291" /><tag k="natural" v="saddle" /></node><node id="-335" version="1" lat="46.61301801337408" lon="7.809958582809797"><tag k="name" v="Satteli" /><tag k="ele" v="1849" /><tag k="natural" v="saddle" /></node><node id="-336" version="1" lat="46.49179053685307" lon="7.920726641668191"><tag k="name" v="Mittagjoch" /><tag k="ele" v="3640" /><tag k="natural" v="saddle" /></node><node id="-337" version="1" lat="46.90701266891315" lon="9.29375907665833"><tag k="name" v="Sattel" /><tag k="ele" v="2682" /><tag k="natural" v="saddle" /></node><node id="-338" version="1" lat="46.59453193115003" lon="8.171833203893701"><tag k="name" v="Gouwlipass" /><tag k="ele" v="3190" /><tag k="natural" v="saddle" /></node><node id="-339" version="1" lat="46.063585402256194" lon="7.433969827367712"><tag k="name" v="Col Sud des Darbonires" /><tag k="ele" v="3335" /><tag k="natural" v="saddle" /></node><node id="-340" version="1" lat="46.63007659807214" lon="8.420250189029575"><tag k="name" v="Unteres Winterjoch" /><tag k="ele" v="3447" /><tag k="natural" v="saddle" /></node><node id="-341" version="1" lat="46.03089344832518" lon="7.626622895824581"><tag k="name" v="Col de Zinal" /><tag k="ele" v="3488" /><tag k="natural" v="saddle" /></node><node id="-342" version="1" lat="46.50369669715579" lon="9.91933552156083"><tag k="name" v="Fuorcla da la Chamanna" /><tag k="ele" v="2704" /><tag k="natural" v="saddle" /></node><node id="-343" version="1" lat="46.66354478011655" lon="7.937780566571207"><tag k="name" v="Güwtürli" /><tag k="ele" v="2028" /><tag k="natural" v="saddle" /></node><node id="-344" version="1" lat="46.70938728920109" lon="8.363167373786144"><tag k="name" v="Murwetestocklimeli" /><tag k="ele" v="2581" /><tag k="natural" v="saddle" /></node><node id="-345" version="1" lat="46.70185984965659" lon="8.501296097298567"><tag k="name" v="Nördliche Flüelücke" /><tag k="ele" v="2969" /><tag k="natural" v="saddle" /></node><node id="-346" version="1" lat="46.97808292728563" lon="8.183270782698365"><tag k="name" v="Trochemattsattel" /><tag k="ele" v="1455" /><tag k="natural" v="saddle" /></node><node id="-347" version="1" lat="46.44284777986563" lon="9.903596516451405"><tag k="name" v="Fuorcla da Mandra" /><tag k="ele" v="2963" /><tag k="natural" v="saddle" /></node><node id="-348" version="1" lat="46.4189163874779" lon="8.224952756867774"><tag k="name" v="Furggelti" /><tag k="ele" v="2525" /><tag k="natural" v="saddle" /></node><node id="-349" version="1" lat="46.73136598620486" lon="8.792083621041696"><tag k="name" v="Aclettapass" /><tag k="ele" v="2794" /><tag k="natural" v="saddle" /></node><node id="-350" version="1" lat="46.523621860181535" lon="8.474195373345626"><tag k="name" v="Passo Superiore di Pesciora" /><tag k="ele" v="3039" /><tag k="natural" v="saddle" /></node><node id="-351" version="1" lat="46.606333692132104" lon="9.026952534002449"><tag k="name" v="Fuorcla Blengias" /><tag k="ele" v="2718" /><tag k="natural" v="saddle" /></node><node id="-352" version="1" lat="46.6264318743146" lon="8.795436995615786"><tag k="name" v="Fuorcla da Puozas" /><tag k="ele" v="2661" /><tag k="natural" v="saddle" /></node><node id="-353" version="1" lat="46.027962998309796" lon="7.054982687258762"><tag k="name" v="Fenêtre de Grône" /><tag k="ele" v="2685" /><tag k="natural" v="saddle" /></node><node id="-354" version="1" lat="46.36831224887485" lon="7.500901938170274"><tag k="name" v="Col des Outannes" /><tag k="ele" v="2794" /><tag k="natural" v="saddle" /></node><node id="-355" version="1" lat="46.67807221230217" lon="9.964042546013767"><tag k="name" v="Fuorcla Punt Ota" /><tag k="ele" v="2922" /><tag k="natural" v="saddle" /></node><node id="-356" version="1" lat="46.947597456996355" lon="9.378186861188023"><tag k="name" v="Piltschinasattel" /><tag k="ele" v="2588" /><tag k="natural" v="saddle" /></node><node id="-357" version="1" lat="46.58210641079077" lon="9.049155435698406"><tag k="name" v="Scharbodalücke" /><tag k="ele" v="3006" /><tag k="natural" v="saddle" /></node><node id="-358" version="1" lat="46.22045069038315" lon="7.117916229430925"><tag k="name" v="Trou d'Aufalle" /><tag k="ele" v="2503" /><tag k="natural" v="saddle" /></node><node id="-359" version="1" lat="46.76173260906268" lon="9.667475322910658"><tag k="name" v="Mittaglugga" /><tag k="ele" v="2359" /><tag k="natural" v="saddle" /></node><node id="-360" version="1" lat="46.83560935909865" lon="10.459200173537264"><tag k="name" v="Fuorcla del Piz Nair" /><tag k="ele" v="2693" /><tag k="natural" v="saddle" /></node><node id="-361" version="1" lat="45.88920017665985" lon="7.219203974569607"><tag k="name" v="Col de Moline" /><tag k="ele" v="2907" /><tag k="natural" v="saddle" /></node><node id="-362" version="1" lat="46.746222695028784" lon="8.450566711844274"><tag k="name" v="Guferjoch" /><tag k="ele" v="2550" /><tag k="natural" v="saddle" /></node><node id="-363" version="1" lat="46.70437871939642" lon="8.61931672213564"><tag k="name" v="Diedersattel" /><tag k="ele" v="1464" /><tag k="natural" v="saddle" /></node><node id="-364" version="1" lat="46.78394314163767" lon="8.625420937223701"><tag k="name" v="Furggi" /><tag k="ele" v="2166" /><tag k="natural" v="saddle" /></node><node id="-365" version="1" lat="46.662851312344074" lon="7.371909546628898"><tag k="name" v="Chänelpass" /><tag k="ele" v="1791" /><tag k="natural" v="saddle" /></node><node id="-366" version="1" lat="46.66985447780891" lon="8.178853506615624"><tag k="name" v="Engellicken" /><tag k="ele" v="2671" /><tag k="natural" v="saddle" /></node><node id="-367" version="1" lat="46.50192099095096" lon="6.991702904709093"><tag k="name" v="Col de Lys" /><tag k="ele" v="1779" /><tag k="natural" v="saddle" /></node><node id="-368" version="1" lat="46.914997890792776" lon="10.334543258954257"><tag k="name" v="Fuorcla Chamins" /><tag k="ele" v="2817" /><tag k="natural" v="saddle" /></node><node id="-369" version="1" lat="46.74870708877309" lon="10.172852183249645"><tag k="name" v="La Sella" /><tag k="ele" v="2483" /><tag k="natural" v="saddle" /></node><node id="-370" version="1" lat="46.5088738496146" lon="8.197632276909937"><tag k="name" v="Firehornlicke" /><tag k="ele" v="3059" /><tag k="natural" v="saddle" /></node><node id="-371" version="1" lat="46.550939603090725" lon="8.962297053462606"><tag k="name" v="Passo Muazz" /><tag k="ele" v="1697" /><tag k="natural" v="saddle" /></node><node id="-372" version="1" lat="46.4405446392331" lon="8.023514359007548"><tag k="name" v="Zenbächenlücke" /><tag k="ele" v="3290" /><tag k="natural" v="saddle" /></node><node id="-373" version="1" lat="46.60311309732373" lon="8.411015628361207"><tag k="name" v="Galensattel" /><tag k="ele" v="3114" /><tag k="natural" v="saddle" /></node><node id="-374" version="1" lat="46.54774844595605" lon="8.912248794040044"><tag k="name" v="Cantonill" /><tag k="ele" v="1936" /><tag k="natural" v="saddle" /></node><node id="-375" version="1" lat="46.97532005168547" lon="10.337574699149796"><tag k="name" v="Idjoch" /><tag k="ele" v="2751" /><tag k="natural" v="saddle" /></node><node id="-376" version="1" lat="46.43586295518083" lon="7.7607490486596635"><tag k="name" v="Märbiglücke" /><tag k="ele" v="2943" /><tag k="natural" v="saddle" /></node><node id="-377" version="1" lat="46.95409202049803" lon="10.413845684030091"><tag k="name" v="Fuorcla d'Ars" /><tag k="ele" v="2117" /><tag k="natural" v="saddle" /></node><node id="-378" version="1" lat="46.77681717047742" lon="8.527994356550959"><tag k="name" v="Glatt Pass" /><tag k="ele" v="2933" /><tag k="natural" v="saddle" /></node><node id="-379" version="1" lat="46.69373833381662" lon="8.67593419120496"><tag k="name" v="Gammertallücke" /><tag k="ele" v="2773" /><tag k="natural" v="saddle" /></node><node id="-380" version="1" lat="46.90625865408672" lon="8.767002582116753"><tag k="name" v="Tritt" /><tag k="ele" v="1940" /><tag k="natural" v="saddle" /></node><node id="-381" version="1" lat="46.061453426768225" lon="7.5956243232493055"><tag k="name" v="Col de Bricola" /><tag k="ele" v="3598" /><tag k="natural" v="saddle" /></node><node id="-382" version="1" lat="46.69416376722598" lon="8.635227955509466"><tag k="name" v="Ribener Lücke" /><tag k="ele" v="2622" /><tag k="natural" v="saddle" /></node><node id="-383" version="1" lat="46.534611021869345" lon="9.021445293371452"><tag k="name" v="Sella del Cassinello" /><tag k="ele" v="3000" /><tag k="natural" v="saddle" /></node><node id="-384" version="1" lat="46.81201783021209" lon="9.057341342303346"><tag k="name" v="Siala Dado" /><tag k="ele" v="2378" /><tag k="natural" v="saddle" /></node><node id="-385" version="1" lat="46.63290988485112" lon="9.63413818722492"><tag k="name" v="Furcletta Dafora" /><tag k="ele" v="2350" /><tag k="natural" v="saddle" /></node><node id="-386" version="1" lat="46.61526993697042" lon="8.88080787115739"><tag k="name" v="Siala" /><tag k="ele" v="2964" /><tag k="natural" v="saddle" /></node><node id="-387" version="1" lat="46.56320312155364" lon="9.785059462977278"><tag k="name" v="Fuorcla Dancler" /><tag k="ele" v="2588" /><tag k="natural" v="saddle" /></node><node id="-388" version="1" lat="46.37453630632412" lon="8.830218255943217"><tag k="name" v="La Bochéta det Cramosín" /><tag k="ele" v="2550" /><tag k="natural" v="saddle" /></node><node id="-389" version="1" lat="46.47920992442022" lon="7.7650558750820124"><tag k="name" v="Oeschinenjoch" /><tag k="ele" v="3170" /><tag k="natural" v="saddle" /></node><node id="-390" version="1" lat="46.909476067165464" lon="10.235197628278305"><tag k="name" v="Heidelberger Scharte" /><tag k="ele" v="2818" /><tag k="natural" v="saddle" /></node><node id="-391" version="1" lat="46.50039665067694" lon="8.086130190250557"><tag k="name" v="Gabelhornsattel" /><tag k="ele" v="3762" /><tag k="natural" v="saddle" /></node><node id="-392" version="1" lat="47.26015524123633" lon="9.039895781245738"><tag k="name" v="Ricken" /><tag k="ele" v="791" /><tag k="natural" v="saddle" /></node><node id="-393" version="1" lat="46.58452051400612" lon="9.236379448430958"><tag k="name" v="Bäralücka" /><tag k="ele" v="2530" /><tag k="natural" v="saddle" /></node><node id="-394" version="1" lat="46.389220665568644" lon="9.56242702926015"><tag k="name" v="Gletscherhornsattel" /><tag k="ele" v="2987" /><tag k="natural" v="saddle" /></node><node id="-395" version="1" lat="46.9554789154249" lon="9.319415425056945"><tag k="name" v="Guetentalfurggla" /><tag k="ele" v="2401" /><tag k="natural" v="saddle" /></node><node id="-396" version="1" lat="46.664255864440655" lon="8.911990733798111"><tag k="name" v="Fuorcla da Vallesa" /><tag k="ele" v="2629" /><tag k="natural" v="saddle" /></node><node id="-397" version="1" lat="46.80147985986137" lon="8.957251058040177"><tag k="name" v="Barcun Frisal Sura" /><tag k="ele" v="3179" /><tag k="natural" v="saddle" /></node><node id="-398" version="1" lat="46.654189644437" lon="8.909782372975094"><tag k="name" v="Fuorcla Encarden" /><tag k="ele" v="2800" /><tag k="natural" v="saddle" /></node><node id="-399" version="1" lat="47.359144005225446" lon="7.665198593042324"><tag k="name" v="Passwanghöhe" /><tag k="ele" v="992" /><tag k="natural" v="saddle" /></node><node id="-400" version="1" lat="46.397862807953985" lon="7.910661750609394"><tag k="name" v="Gredetschlicka" /><tag k="ele" v="2988" /><tag k="natural" v="saddle" /></node><node id="-401" version="1" lat="47.17917955011657" lon="9.102522846845254"><tag k="name" v="Furggli" /><tag k="ele" v="1602" /><tag k="natural" v="saddle" /></node><node id="-402" version="1" lat="46.23849719170808" lon="8.068782413195983"><tag k="name" v="Homattupass" /><tag k="ele" v="2866" /><tag k="natural" v="saddle" /></node><node id="-403" version="1" lat="46.63262828209856" lon="8.522802915875515"><tag k="name" v="Mittaglücke" /><tag k="ele" v="2765" /><tag k="natural" v="saddle" /></node><node id="-404" version="1" lat="46.37785491943066" lon="8.01775760205116"><tag k="name" v="Rieder Furka" /><tag k="ele" v="2065" /><tag k="natural" v="saddle" /></node><node id="-405" version="1" lat="46.48036293486641" lon="8.531308985837246"><tag k="name" v="Bassa di Folcra" /><tag k="ele" v="2561" /><tag k="natural" v="saddle" /></node><node id="-406" version="1" lat="46.49487270013386" lon="8.57907111101231"><tag k="name" v="Bocchetta del Vespero" /><tag k="ele" v="2614" /><tag k="natural" v="saddle" /></node><node id="-407" version="1" lat="46.90262029125802" lon="10.40171048332893"><tag k="name" v="Fuorcla Salet" /><tag k="ele" v="2826" /><tag k="natural" v="saddle" /></node><node id="-408" version="1" lat="46.46871754483103" lon="7.700196063084393"><tag k="name" v="Fisipass" /><tag k="ele" v="2669" /><tag k="natural" v="saddle" /></node><node id="-409" version="1" lat="46.349144977504565" lon="7.784996101285556"><tag k="name" v="Chrinnulicku" /><tag k="ele" v="2641" /><tag k="natural" v="saddle" /></node><node id="-410" version="1" lat="46.5290464412704" lon="9.138246457027599"><tag k="name" v="Lorenzlücka" /><tag k="ele" v="2847" /><tag k="natural" v="saddle" /></node><node id="-411" version="1" lat="46.560880412580225" lon="8.69437846399799"><tag k="name" v="Bassa del Lago Scuro" /><tag k="ele" v="2477" /><tag k="natural" v="saddle" /></node><node id="-412" version="1" lat="46.62126340901029" lon="8.254530217014501"><tag k="name" v="Ärlenlücke" /><tag k="ele" v="3054" /><tag k="natural" v="saddle" /></node><node id="-413" version="1" lat="46.96845296053148" lon="8.906260785593192"><tag k="name" v="Chratzerenfurggeli" /><tag k="ele" v="2140" /><tag k="natural" v="saddle" /></node><node id="-414" version="1" lat="46.92911042252762" lon="9.266952969886496"><tag k="name" v="Älplijoch" /><tag k="ele" v="2553" /><tag k="natural" v="saddle" /></node><node id="-415" version="1" lat="45.91194354747919" lon="7.139085587175606"><tag k="name" v="Col Nord des Planards" /><tag k="ele" v="2820" /><tag k="natural" v="saddle" /></node><node id="-416" version="1" lat="46.14231675845076" lon="7.587159413932612"><tag k="name" v="Col de Sorebois" /><tag k="ele" v="2812" /><tag k="natural" v="saddle" /></node><node id="-417" version="1" lat="46.8366186244701" lon="8.664495311626885"><tag k="name" v="Griggeler" /><tag k="ele" v="1969" /><tag k="natural" v="saddle" /></node><node id="-418" version="1" lat="46.79128165956018" lon="9.582131514423638"><tag k="name" v="Scheidegga" /><tag k="ele" v="2383" /><tag k="natural" v="saddle" /></node><node id="-419" version="1" lat="46.709439019194726" lon="8.686521853222168"><tag k="name" v="Wichellücke" /><tag k="ele" v="2684" /><tag k="natural" v="saddle" /></node><node id="-420" version="1" lat="45.998071163851215" lon="7.238164142036366"><tag k="name" v="Oujets de Bagnes" /><tag k="ele" v="3064" /><tag k="natural" v="saddle" /></node><node id="-421" version="1" lat="46.76063363100025" lon="8.908406009359203"><tag k="name" v="Fuorcla Crap Ner" /><tag k="ele" v="2563" /><tag k="natural" v="saddle" /></node><node id="-422" version="1" lat="46.23533820251203" lon="8.925975628684526"><tag k="name" v="Bochete di Cazzann" /><tag k="ele" v="2104" /><tag k="natural" v="saddle" /></node><node id="-423" version="1" lat="46.2835839004039" lon="6.864270103789093"><tag k="name" v="Portes d'Onne" /><tag k="ele" v="1911" /><tag k="natural" v="saddle" /></node><node id="-424" version="1" lat="46.38286043334193" lon="9.865732410506526"><tag k="name" v="Fuorcla dals Aguagliouls" /><tag k="ele" v="3148" /><tag k="natural" v="saddle" /></node><node id="-425" version="1" lat="46.625993475341915" lon="8.277087097724184"><tag k="name" v="Wiissenbachlimelti" /><tag k="ele" v="2393" /><tag k="natural" v="saddle" /></node><node id="-426" version="1" lat="45.92702659944846" lon="7.716422510094732"><tag k="name" v="Passo di Ventina Sud" /><tag k="ele" v="3666" /><tag k="natural" v="saddle" /></node><node id="-427" version="1" lat="46.383892242715355" lon="8.611567745029912"><tag k="name" v="Bocchetta di Fiorasca" /><tag k="ele" v="2298" /><tag k="natural" v="saddle" /></node><node id="-428" version="1" lat="46.56486639212741" lon="8.122181739908601"><tag k="name" v="Alt Strahlegg" /><tag k="ele" v="3315" /><tag k="natural" v="saddle" /></node><node id="-429" version="1" lat="47.38069812231624" lon="7.789885600006484"><tag k="name" v="Birchhöchi" /><tag k="ele" v="868" /><tag k="natural" v="saddle" /></node><node id="-430" version="1" lat="47.01172824832291" lon="9.286474847293897"><tag k="name" v="Lauifurggla" /><tag k="ele" v="2192" /><tag k="natural" v="saddle" /></node><node id="-431" version="1" lat="46.678028090488795" lon="9.80208074804092"><tag k="name" v="Gipsfurgga" /><tag k="ele" v="2672" /><tag k="natural" v="saddle" /></node><node id="-432" version="1" lat="46.80343325712597" lon="8.733585864044757"><tag k="name" v="Oberes Furggeli" /><tag k="ele" v="2679" /><tag k="natural" v="saddle" /></node><node id="-433" version="1" lat="46.63353165063705" lon="9.647123002347929"><tag k="name" v="Furcletta Davains" /><tag k="ele" v="2454" /><tag k="natural" v="saddle" /></node><node id="-434" version="1" lat="46.55785616314216" lon="7.868890271893385"><tag k="name" v="Chrinna" /><tag k="ele" v="2126" /><tag k="natural" v="saddle" /></node><node id="-435" version="1" lat="46.72228605251049" lon="10.120311451366561"><tag k="name" v="Fuorcla Pitschna" /><tag k="ele" v="2838" /><tag k="natural" v="saddle" /></node><node id="-436" version="1" lat="46.520349442292854" lon="8.470978895128878"><tag k="name" v="Passo Inferiore di Pesciora" /><tag k="ele" v="2982" /><tag k="natural" v="saddle" /></node><node id="-437" version="1" lat="45.96475251265832" lon="7.436624273021433"><tag k="name" v="Col Nord des Portons" /><tag k="ele" v="3366" /><tag k="natural" v="saddle" /></node><node id="-438" version="1" lat="46.63237810118142" lon="8.654508157341875"><tag k="name" v="Älplilücke" /><tag k="ele" v="2698" /><tag k="natural" v="saddle" /></node><node id="-439" version="1" lat="47.369159619159575" lon="7.834095412159485"><tag k="name" v="Challhöchi" /><tag k="ele" v="847" /><tag k="natural" v="saddle" /></node><node id="-440" version="1" lat="46.39549779749422" lon="8.575358095976808"><tag k="name" v="Bocchetta di Sovénat" /><tag k="ele" v="2433" /><tag k="natural" v="saddle" /></node><node id="-441" version="1" lat="46.354967984992186" lon="7.915655237067633"><tag k="name" v="Schiltfurgga" /><tag k="ele" v="2756" /><tag k="natural" v="saddle" /></node><node id="-442" version="1" lat="46.67489653635536" lon="8.397970186052444"><tag k="name" v="Nördliches Maasplangjoch" /><tag k="ele" v="3301" /><tag k="natural" v="saddle" /></node><node id="-443" version="1" lat="46.50956421458593" lon="7.9579658516258664"><tag k="name" v="Gletscherjoch" /><tag k="ele" v="3760" /><tag k="natural" v="saddle" /></node><node id="-444" version="1" lat="46.40146995199405" lon="8.311487100275238"><tag k="name" v="Ober Hohsandjoch" /><tag k="ele" v="3005" /><tag k="natural" v="saddle" /></node><node id="-445" version="1" lat="47.36008193589607" lon="7.807580415906808"><tag k="name" v="Gwidemhöchi" /><tag k="ele" v="998" /><tag k="natural" v="saddle" /></node><node id="-446" version="1" lat="46.56309735726857" lon="9.721291294466388"><tag k="name" v="Fuorcla Mulix" /><tag k="ele" v="2870" /><tag k="natural" v="saddle" /></node><node id="-447" version="1" lat="46.372214054721105" lon="9.093988906145617"><tag k="name" v="Pass di Giümela" /><tag k="ele" v="2117" /><tag k="natural" v="saddle" /></node><node id="-448" version="1" lat="46.139124998579476" lon="6.853048437258367"><tag k="name" v="Col de Barme" /><tag k="ele" v="2383" /><tag k="natural" v="saddle" /></node><node id="-449" version="1" lat="47.438269069560405" lon="8.315593979925612"><tag k="name" v="Rüsler" /><tag k="ele" v="648" /><tag k="natural" v="saddle" /></node><node id="-450" version="1" lat="46.53893414447762" lon="9.790136845086746"><tag k="name" v="Fuorcla Marscha" /><tag k="ele" v="2874" /><tag k="natural" v="saddle" /></node><node id="-451" version="1" lat="46.393314926429014" lon="7.159716969155349"><tag k="name" v="Lanche de Perte" /><tag k="ele" v="1957" /><tag k="natural" v="saddle" /></node><node id="-452" version="1" lat="45.90418549996877" lon="7.2378525234626085"><tag k="name" v="Col de Tseudet" /><tag k="ele" v="3169" /><tag k="natural" v="saddle" /></node><node id="-453" version="1" lat="46.41275606702826" lon="6.99426017780231"><tag k="name" v="Pertuis d'Aveneyre" /><tag k="ele" v="1846" /><tag k="natural" v="saddle" /></node><node id="-454" version="1" lat="46.61927751548933" lon="8.48531069574511"><tag k="name" v="Älprigenlücke" /><tag k="ele" v="2781" /><tag k="natural" v="saddle" /></node><node id="-455" version="1" lat="46.968738872766274" lon="9.243499714617196"><tag k="name" v="Walenbützer Furggle" /><tag k="ele" v="2168" /><tag k="natural" v="saddle" /></node><node id="-456" version="1" lat="46.466543871248504" lon="9.090385218328857"><tag k="name" v="Passo di Giumello" /><tag k="ele" v="2957" /><tag k="natural" v="saddle" /></node><node id="-457" version="1" lat="46.23754168485542" lon="7.686461716569332"><tag k="name" v="Simmiglicke" /><tag k="ele" v="2634" /><tag k="natural" v="saddle" /></node><node id="-458" version="1" lat="46.45564768422294" lon="8.16266697573325"><tag k="name" v="Furggulti" /><tag k="ele" v="2587" /><tag k="natural" v="saddle" /></node><node id="-459" version="1" lat="46.32172620362097" lon="8.851799406739747"><tag k="name" v="Passo di Corte Nuovo" /><tag k="ele" v="2427" /><tag k="natural" v="saddle" /></node><node id="-460" version="1" lat="46.18752614986558" lon="7.641071406891714"><tag k="name" v="Bella Vouarda" /><tag k="ele" v="2621" /><tag k="natural" v="saddle" /></node><node id="-461" version="1" lat="46.73980763697879" lon="8.772757225496903"><tag k="name" v="Fuorcla da Strem Sura" /><tag k="ele" v="3112" /><tag k="natural" v="saddle" /></node><node id="-462" version="1" lat="46.05783336896516" lon="7.7037513899550225"><tag k="name" v="Ober Äschjoch" /><tag k="ele" v="3621" /><tag k="natural" v="saddle" /></node><node id="-463" version="1" lat="46.678779144958675" lon="7.600219647182712"><tag k="name" v="Chrindi" /><tag k="ele" v="1359" /><tag k="natural" v="saddle" /></node><node id="-464" version="1" lat="46.76987539112319" lon="8.442212111108393"><tag k="name" v="Wendenjoch" /><tag k="ele" v="2581" /><tag k="natural" v="saddle" /></node><node id="-465" version="1" lat="46.515992227118595" lon="9.786741627016413"><tag k="name" v="Fuorcla Grischa" /><tag k="ele" v="2952" /><tag k="natural" v="saddle" /></node><node id="-466" version="1" lat="46.717435987750704" lon="10.14501400884114"><tag k="name" v="Pass d'Ivraina" /><tag k="ele" v="2934" /><tag k="natural" v="saddle" /></node><node id="-467" version="1" lat="46.865047841557534" lon="8.534095524080305"><tag k="name" v="Schlierenlücke" /><tag k="ele" v="2707" /><tag k="natural" v="saddle" /></node><node id="-468" version="1" lat="46.580832132058994" lon="10.097578694641637"><tag k="name" v="Fuorcla Trupchun" /><tag k="ele" v="2780" /><tag k="natural" v="saddle" /></node><node id="-469" version="1" lat="46.545350362862735" lon="8.20201580124487"><tag k="name" v="Scheuchzerjoch" /><tag k="ele" v="3072" /><tag k="natural" v="saddle" /></node><node id="-470" version="1" lat="46.73385454650127" lon="9.6618859794256"><tag k="name" v="Martiroz Furgga" /><tag k="ele" v="2426" /><tag k="natural" v="saddle" /></node><node id="-471" version="1" lat="46.174992455240066" lon="7.995662061888733"><tag k="name" v="Senggjoch" /><tag k="ele" v="3615" /><tag k="natural" v="saddle" /></node><node id="-472" version="1" lat="47.008043059098576" lon="8.51096113258818"><tag k="name" v="Fälmissattel" /><tag k="ele" v="1224" /><tag k="natural" v="saddle" /></node><node id="-473" version="1" lat="46.092794550270554" lon="7.312753447509403"><tag k="name" v="Le Ferret" /><tag k="ele" v="2940" /><tag k="natural" v="saddle" /></node><node id="-474" version="1" lat="46.584978988630255" lon="9.31114937166852"><tag k="name" v="Steilerlücke" /><tag k="ele" v="2762" /><tag k="natural" v="saddle" /></node><node id="-475" version="1" lat="46.91194852855147" lon="9.256429711244069"><tag k="name" v="Sardonapass" /><tag k="ele" v="2758" /><tag k="natural" v="saddle" /></node><node id="-476" version="1" lat="46.94141613754804" lon="8.801538510043878"><tag k="name" v="Wit Tor" /><tag k="ele" v="2046" /><tag k="natural" v="saddle" /></node><node id="-477" version="1" lat="46.32149833466168" lon="8.685861517907496"><tag k="name" v="Bocchetta Canòva" /><tag k="ele" v="2226" /><tag k="natural" v="saddle" /></node><node id="-478" version="1" lat="46.6081402140207" lon="8.899469093711941"><tag k="name" v="Fuorcla Su" /><tag k="ele" v="3061" /><tag k="natural" v="saddle" /></node><node id="-479" version="1" lat="46.78689449094256" lon="8.931402718082548"><tag k="name" v="Fuorcla da Punteglias" /><tag k="ele" v="2811" /><tag k="natural" v="saddle" /></node><node id="-480" version="1" lat="46.334342252285474" lon="9.635205783938147"><tag k="name" v="Passo Val della Neve" /><tag k="ele" v="2365" /><tag k="natural" v="saddle" /></node><node id="-481" version="1" lat="46.3571637942341" lon="9.28752956810533"><tag k="name" v="Call del Foräät" /><tag k="ele" v="2635" /><tag k="natural" v="saddle" /></node><node id="-482" version="1" lat="46.31987959062116" lon="8.911966081816404"><tag k="name" v="Bocchetta di Piatto" /><tag k="ele" v="2080" /><tag k="natural" v="saddle" /></node><node id="-483" version="1" lat="46.796684835059565" lon="8.611213040499958"><tag k="name" v="Riedfurggi" /><tag k="ele" v="2213" /><tag k="natural" v="saddle" /></node><node id="-484" version="1" lat="46.60318067307488" lon="8.158571992641608"><tag k="name" v="Östliche Ankenbällilücke" /><tag k="ele" v="3267" /><tag k="natural" v="saddle" /></node><node id="-485" version="1" lat="46.53000576794588" lon="9.016813037101295"><tag k="name" v="Cassimoi Sattel" /><tag k="ele" v="3108" /><tag k="natural" v="saddle" /></node><node id="-486" version="1" lat="47.03883927139245" lon="9.571639720299853"><tag k="name" v="Tüf Furgga" /><tag k="ele" v="2241" /><tag k="natural" v="saddle" /></node><node id="-487" version="1" lat="46.389354547627946" lon="8.844068403696141"><tag k="name" v="Forcarella d'Áfata" /><tag k="ele" v="2005" /><tag k="natural" v="saddle" /></node><node id="-488" version="1" lat="46.89689160705124" lon="9.365541036525274"><tag k="name" v="Panäralügga" /><tag k="ele" v="2963" /><tag k="natural" v="saddle" /></node><node id="-489" version="1" lat="46.56748749932243" lon="8.850600174590706"><tag k="name" v="Pass Casatscha" /><tag k="ele" v="2659" /><tag k="natural" v="saddle" /></node><node id="-490" version="1" lat="46.818463220969825" lon="8.085836420992145"><tag k="name" v="Glaubenbielen" /><tag k="ele" v="1565" /><tag k="natural" v="saddle" /></node><node id="-491" version="1" lat="46.932965996327475" lon="9.120484633678071"><tag k="name" v="Furggel" /><tag k="ele" v="2378" /><tag k="natural" v="saddle" /></node><node id="-492" version="1" lat="46.982496955862516" lon="9.244014897003062"><tag k="name" v="Feldeggfurggle" /><tag k="ele" v="2245" /><tag k="natural" v="saddle" /></node><node id="-493" version="1" lat="46.380365015649105" lon="8.822983651236324"><tag k="name" v="Bassa della Cògnora" /><tag k="ele" v="2373" /><tag k="natural" v="saddle" /></node><node id="-494" version="1" lat="46.26178538331769" lon="8.542277928362934"><tag k="name" v="I Catt da Ríbia" /><tag k="ele" v="2362" /><tag k="natural" v="saddle" /></node><node id="-495" version="1" lat="46.95183453617462" lon="10.407528941087582"><tag k="name" v="Fuorcla Curschiglias" /><tag k="ele" v="2135" /><tag k="natural" v="saddle" /></node><node id="-496" version="1" lat="46.179903347528096" lon="6.809704225985885"><tag k="name" v="Col de Cuboré" /><tag k="ele" v="2083" /><tag k="natural" v="saddle" /></node><node id="-497" version="1" lat="46.50850956084231" lon="9.092186397316947"><tag k="name" v="Canallücka" /><tag k="ele" v="2839" /><tag k="natural" v="saddle" /></node><node id="-498" version="1" lat="46.853280062903046" lon="9.796635312399752"><tag k="name" v="Casannapass" /><tag k="ele" v="2232" /><tag k="natural" v="saddle" /></node><node id="-499" version="1" lat="46.901188916285186" lon="10.2328753552273"><tag k="name" v="Larainfernerjoch" /><tag k="ele" v="2852" /><tag k="natural" v="saddle" /></node><node id="-500" version="1" lat="46.73389902271883" lon="10.268480503604813"><tag k="name" v="Fuorcla Zuort" /><tag k="ele" v="2870" /><tag k="natural" v="saddle" /></node><node id="-501" version="1" lat="46.81808448886951" lon="9.415715189226164"><tag k="name" v="Sella" /><tag k="ele" v="691" /><tag k="natural" v="saddle" /></node><node id="-502" version="1" lat="46.410099531281205" lon="8.271697882396785"><tag k="name" v="Turbejoch" /><tag k="ele" v="3127" /><tag k="natural" v="saddle" /></node><node id="-503" version="1" lat="46.53087961948112" lon="7.440112634309323"><tag k="name" v="Wolfsgrätli" /><tag k="ele" v="2098" /><tag k="natural" v="saddle" /></node><node id="-504" version="1" lat="47.321944620507125" lon="8.888692944972616"><tag k="name" v="Frauebrünneli" /><tag k="ele" v="1026" /><tag k="natural" v="saddle" /></node><node id="-505" version="1" lat="46.53931869567098" lon="7.950820199344914"><tag k="name" v="Silberlicka" /><tag k="ele" v="3637" /><tag k="natural" v="saddle" /></node><node id="-506" version="1" lat="46.53078694526742" lon="9.059127237955094"><tag k="name" v="Under Güferlücke" /><tag k="ele" v="2864" /><tag k="natural" v="saddle" /></node><node id="-507" version="1" lat="46.69981028261355" lon="9.999020551826167"><tag k="name" v="Fuorcla Sarsura" /><tag k="ele" v="2921" /><tag k="natural" v="saddle" /></node><node id="-508" version="1" lat="46.55846540706802" lon="9.76070475282362"><tag k="name" v="Fuorcla Biala" /><tag k="ele" v="2884" /><tag k="natural" v="saddle" /></node><node id="-509" version="1" lat="46.640703962554035" lon="8.249468475568056"><tag k="name" v="Mattenlimmi" /><tag k="ele" v="2701" /><tag k="natural" v="saddle" /></node><node id="-510" version="1" lat="46.600277841052936" lon="8.733654858155937"><tag k="name" v="Fuorcla Serengia" /><tag k="ele" v="2793" /><tag k="natural" v="saddle" /></node><node id="-511" version="1" lat="46.74580467856196" lon="9.679855842518394"><tag k="name" v="Leidfluafurgga" /><tag k="ele" v="2470" /><tag k="natural" v="saddle" /></node><node id="-512" version="1" lat="46.54729200251698" lon="9.17645642300353"><tag k="name" v="Wenglilücka" /><tag k="ele" v="2479" /><tag k="natural" v="saddle" /></node><node id="-513" version="1" lat="46.37434596132912" lon="7.795332889538774"><tag k="name" v="Chastlerjoch" /><tag k="ele" v="3128" /><tag k="natural" v="saddle" /></node><node id="-514" version="1" lat="46.64960336124689" lon="8.397481999836417"><tag k="name" v="Obri Triftlimi" /><tag k="ele" v="3275" /><tag k="natural" v="saddle" /></node><node id="-515" version="1" lat="46.716674872372856" lon="10.133066822676437"><tag k="name" v="Fuorcletta da Barcli" /><tag k="ele" v="2849" /><tag k="natural" v="saddle" /></node><node id="-516" version="1" lat="46.40247902128442" lon="8.30424705930922"><tag k="name" v="Mittlebärgpass" /><tag k="ele" v="3042" /><tag k="natural" v="saddle" /></node><node id="-517" version="1" lat="46.398246245808885" lon="7.532427212267353"><tag k="name" v="Lämmerejoch" /><tag k="ele" v="3122" /><tag k="natural" v="saddle" /></node><node id="-518" version="1" lat="46.57936310305842" lon="8.579586506701801"><tag k="name" v="Sunnig Lücke" /><tag k="ele" v="2585" /><tag k="natural" v="saddle" /></node><node id="-519" version="1" lat="46.69149852505446" lon="9.956810033690255"><tag k="name" v="Fuorcla Vallorgia" /><tag k="ele" v="2962" /><tag k="natural" v="saddle" /></node><node id="-520" version="1" lat="46.91552516082244" lon="8.706692687927406"><tag k="name" v="Spilauer Grätli" /><tag k="ele" v="2278" /><tag k="natural" v="saddle" /></node><node id="-521" version="1" lat="45.88890451426393" lon="7.148628324689354"><tag k="name" v="Col des Trois Lacs" /><tag k="ele" v="2672" /><tag k="natural" v="saddle" /></node><node id="-522" version="1" lat="46.523711949084834" lon="8.206467980152253"><tag k="name" v="Roossejoch" /><tag k="ele" v="3049" /><tag k="natural" v="saddle" /></node><node id="-523" version="1" lat="46.607328226532445" lon="8.77440983955292"><tag k="name" v="Fuorcla Vatgira" /><tag k="ele" v="2823" /><tag k="natural" v="saddle" /></node><node id="-524" version="1" lat="46.85978101727285" lon="9.131510612759872"><tag k="name" v="Crena Martin" /><tag k="ele" v="2726" /><tag k="natural" v="saddle" /></node><node id="-525" version="1" lat="46.94261837607534" lon="9.370925668925008"><tag k="name" v="Marchtalsattel" /><tag k="ele" v="2657" /><tag k="natural" v="saddle" /></node><node id="-526" version="1" lat="46.47227655449835" lon="7.912676053078849"><tag k="name" v="Zem Hindri Ligg" /><tag k="ele" v="3009" /><tag k="natural" v="saddle" /></node><node id="-527" version="1" lat="46.561367027778935" lon="7.848690555034687"><tag k="name" v="Seewlifura" /><tag k="ele" v="2598" /><tag k="natural" v="saddle" /></node><node id="-528" version="1" lat="46.592711931518814" lon="8.17505789442083"><tag k="name" v="Alter Gouwlipass" /><tag k="ele" v="3099" /><tag k="natural" v="saddle" /></node><node id="-529" version="1" lat="46.68558270100311" lon="10.225634371570951"><tag k="name" v="Fuorcla Ftur" /><tag k="ele" v="2724" /><tag k="natural" v="saddle" /></node><node id="-530" version="1" lat="46.43834246378131" lon="7.011238884782501"><tag k="name" v="Pas de Jayet" /><tag k="ele" v="1575" /><tag k="natural" v="saddle" /></node><node id="-531" version="1" lat="45.9512046056444" lon="7.754639821004471"><tag k="name" v="Triftjisattel" /><tag k="ele" v="3232" /><tag k="natural" v="saddle" /></node><node id="-532" version="1" lat="46.51906517370752" lon="9.49846943787244"><tag k="name" v="Furcla da Saletscha" /><tag k="ele" v="2613" /><tag k="natural" v="saddle" /></node><node id="-533" version="1" lat="47.04433614223858" lon="9.566369111217215"><tag k="name" v="Fläscher Fürggli" /><tag k="ele" v="2247" /><tag k="natural" v="saddle" /></node><node id="-534" version="1" lat="47.104657137819096" lon="8.946885988687376"><tag k="name" v="Schwarzenegghöchi" /><tag k="ele" v="1364" /><tag k="natural" v="saddle" /></node><node id="-535" version="1" lat="46.28027476028305" lon="7.599353348362463"><tag k="name" v="Zehnerlücke" /><tag k="ele" v="1910" /><tag k="natural" v="saddle" /></node><node id="-536" version="1" lat="46.536105688912976" lon="8.278159460079438"><tag k="name" v="Üerlicherjoch" /><tag k="ele" v="2756" /><tag k="natural" v="saddle" /></node><node id="-537" version="1" lat="46.54768855765201" lon="9.94358095995555"><tag k="name" v="Pass Mel" /><tag k="ele" v="2233" /><tag k="natural" v="saddle" /></node><node id="-538" version="1" lat="46.458347634317235" lon="8.48068146460105"><tag k="name" v="Bocchetta di Formazzora" /><tag k="ele" v="2686" /><tag k="natural" v="saddle" /></node><node id="-539" version="1" lat="46.98367904213726" lon="6.7797497462719"><tag k="name" v="Col de la Tourne" /><tag k="ele" v="1168" /><tag k="natural" v="saddle" /></node><node id="-540" version="1" lat="46.57348959840826" lon="8.708539103482048"><tag k="name" v="Passo Vecchio" /><tag k="ele" v="2736" /><tag k="natural" v="saddle" /></node><node id="-541" version="1" lat="46.06215957032001" lon="6.876438345849104"><tag k="name" v="Col du Grenairon" /><tag k="ele" v="2685" /><tag k="natural" v="saddle" /></node><node id="-542" version="1" lat="46.5177471522889" lon="7.742392077301136"><tag k="name" v="Bundstocklücke" /><tag k="ele" v="2640" /><tag k="natural" v="saddle" /></node><node id="-543" version="1" lat="46.0763399909172" lon="7.575593532750006"><tag k="name" v="Col du Mourti" /><tag k="ele" v="3259" /><tag k="natural" v="saddle" /></node><node id="-544" version="1" lat="46.35672350505477" lon="7.670204687755238"><tag k="name" v="Schnydi" /><tag k="ele" v="2386" /><tag k="natural" v="saddle" /></node><node id="-545" version="1" lat="46.79681383551055" lon="8.335717458614367"><tag k="name" v="Tannenrotisand" /><tag k="ele" v="2510" /><tag k="natural" v="saddle" /></node><node id="-546" version="1" lat="47.2265980952287" lon="8.611136154820592"><tag k="name" v="Hirzel" /><tag k="ele" v="683" /><tag k="natural" v="saddle" /></node><node id="-547" version="1" lat="46.017070900277055" lon="8.882804782111712"><tag k="name" v="Forcora" /><tag k="ele" v="850" /><tag k="natural" v="saddle" /></node><node id="-548" version="1" lat="46.12513730919199" lon="6.877935336547755"><tag k="name" v="Col des Ottans" /><tag k="ele" v="2498" /><tag k="natural" v="saddle" /></node><node id="-549" version="1" lat="46.59583347225721" lon="8.915399516297263"><tag k="name" v="Pass d'Uffiern" /><tag k="ele" v="2627" /><tag k="natural" v="saddle" /></node><node id="-550" version="1" lat="45.99758424936463" lon="7.373236758079979"><tag k="name" v="Col du Giétro" /><tag k="ele" v="3105" /><tag k="natural" v="saddle" /></node><node id="-551" version="1" lat="46.035706745519995" lon="7.674260495848573"><tag k="name" v="Ober Gabeljoch" /><tag k="ele" v="3594" /><tag k="natural" v="saddle" /></node><node id="-552" version="1" lat="46.636069970721046" lon="8.418987672544915"><tag k="name" v="Rhonejoch" /><tag k="ele" v="3510" /><tag k="natural" v="saddle" /></node><node id="-553" version="1" lat="46.08718061919066" lon="7.361402018942924"><tag k="name" v="Fenêtre d'Allèves" /><tag k="ele" v="2910" /><tag k="natural" v="saddle" /></node><node id="-554" version="1" lat="46.0681975482996" lon="7.371328689493285"><tag k="name" v="Col de Mourti" /><tag k="ele" v="2908" /><tag k="natural" v="saddle" /></node><node id="-555" version="1" lat="46.95723712469687" lon="8.707072902377087"><tag k="name" v="Sattel" /><tag k="ele" v="1805" /><tag k="natural" v="saddle" /></node><node id="-556" version="1" lat="46.814720316647374" lon="9.0545655462067"><tag k="name" v="La Siala" /><tag k="ele" v="2357" /><tag k="natural" v="saddle" /></node><node id="-557" version="1" lat="46.78077102489833" lon="10.35704552793505"><tag k="name" v="Fuorcla Ajüz" /><tag k="ele" v="2672" /><tag k="natural" v="saddle" /></node><node id="-558" version="1" lat="46.37958416692172" lon="7.857744271196571"><tag k="name" v="Tiereggpass" /><tag k="ele" v="3049" /><tag k="natural" v="saddle" /></node><node id="-559" version="1" lat="46.57523029401467" lon="9.522936097800029"><tag k="name" v="Fuorcla Surcarungas" /><tag k="ele" v="2589" /><tag k="natural" v="saddle" /></node><node id="-560" version="1" lat="46.69968498474494" lon="10.029260143439632"><tag k="name" v="Sella da Pülschezza" /><tag k="ele" v="2626" /><tag k="natural" v="saddle" /></node><node id="-561" version="1" lat="46.93056265775616" lon="8.724041375343328"><tag k="name" v="Chaisertor" /><tag k="ele" v="2338" /><tag k="natural" v="saddle" /></node><node id="-562" version="1" lat="47.005799294062626" lon="9.270184367686191"><tag k="name" v="Siezfurggla" /><tag k="ele" v="2315" /><tag k="natural" v="saddle" /></node><node id="-563" version="1" lat="46.738053157364675" lon="8.851257311968162"><tag k="name" v="Siala da Lumpegna" /><tag k="ele" v="2506" /><tag k="natural" v="saddle" /></node><node id="-564" version="1" lat="47.09521044589517" lon="9.625391566945723"><tag k="name" v="Sareiserjoch" /><tag k="ele" v="1992" /><tag k="natural" v="saddle" /></node><node id="-565" version="1" lat="46.657152517680245" lon="9.353928775788434"><tag k="name" v="Gemschlügga" /><tag k="ele" v="2558" /><tag k="natural" v="saddle" /></node><node id="-566" version="1" lat="47.251121951616355" lon="8.93281503131487"><tag k="name" v="Kirchweghöchi" /><tag k="ele" v="638" /><tag k="natural" v="saddle" /></node><node id="-567" version="1" lat="47.04071653903113" lon="9.5944469134009"><tag k="name" v="Talegg" /><tag k="ele" v="1899" /><tag k="natural" v="saddle" /></node><node id="-568" version="1" lat="46.89931180570317" lon="9.383638671110766"><tag k="name" v="Orglensattel" /><tag k="ele" v="2629" /><tag k="natural" v="saddle" /></node><node id="-569" version="1" lat="46.62616590175008" lon="9.217286050657602"><tag k="name" v="Tomüllückli" /><tag k="ele" v="2578" /><tag k="natural" v="saddle" /></node><node id="-570" version="1" lat="46.501270361581405" lon="7.93369482689977"><tag k="name" v="Äbni Flue-Joch" /><tag k="ele" v="3696" /><tag k="natural" v="saddle" /></node><node id="-571" version="1" lat="46.50700534204151" lon="9.605911950308213"><tag k="name" v="Furschela" /><tag k="ele" v="2293" /><tag k="natural" v="saddle" /></node><node id="-572" version="1" lat="45.9048530465374" lon="7.1416628867131875"><tag k="name" v="Col Sud des Planards" /><tag k="ele" v="2736" /><tag k="natural" v="saddle" /></node><node id="-573" version="1" lat="46.35235936725868" lon="7.815156565239966"><tag k="name" v="Mattefurgge" /><tag k="ele" v="2701" /><tag k="natural" v="saddle" /></node><node id="-574" version="1" lat="46.50120253447854" lon="8.187793266124364"><tag k="name" v="Unnerlicke" /><tag k="ele" v="3127" /><tag k="natural" v="saddle" /></node><node id="-575" version="1" lat="46.52364359008348" lon="8.197891306515183"><tag k="name" v="Münsterjoch" /><tag k="ele" v="3108" /><tag k="natural" v="saddle" /></node><node id="-576" version="1" lat="46.51548786136364" lon="9.110281245953637"><tag k="name" v="Canallückli" /><tag k="ele" v="2819" /><tag k="natural" v="saddle" /></node><node id="-577" version="1" lat="46.98316457194092" lon="9.808522473966645"><tag k="name" v="Lärtschfürggli" /><tag k="ele" v="2147" /><tag k="natural" v="saddle" /></node><node id="-578" version="1" lat="46.49848271711988" lon="8.446539756887722"><tag k="name" v="Passo di Manió" /><tag k="ele" v="2713" /><tag k="natural" v="saddle" /></node><node id="-579" version="1" lat="46.993123358529" lon="8.254696949325078"><tag k="name" v="Bielilücke" /><tag k="ele" v="1372" /><tag k="natural" v="saddle" /></node><node id="-580" version="1" lat="46.86774641829987" lon="9.599677085516378"><tag k="name" v="Furgglis" /><tag k="ele" v="2167" /><tag k="natural" v="saddle" /></node><node id="-581" version="1" lat="46.588928967252336" lon="8.240980833828234"><tag k="name" v="Obri Bächlilicken" /><tag k="ele" v="3073" /><tag k="natural" v="saddle" /></node><node id="-582" version="1" lat="46.39010927282732" lon="7.181093100605618"><tag k="name" v="Pas de Sazième" /><tag k="ele" v="1802" /><tag k="natural" v="saddle" /></node><node id="-583" version="1" lat="46.57564210248724" lon="8.705106181821108"><tag k="name" v="Bocchetta di Curnera" /><tag k="ele" v="2746" /><tag k="natural" v="saddle" /></node><node id="-584" version="1" lat="46.72715779177586" lon="10.020370864936124"><tag k="name" v="Sella d'Arpschella" /><tag k="ele" v="2775" /><tag k="natural" v="saddle" /></node><node id="-585" version="1" lat="46.78186257316154" lon="10.433751046541559"><tag k="name" v="Forcola di Grion" /><tag k="ele" v="2695" /><tag k="natural" v="saddle" /></node><node id="-586" version="1" lat="45.98535025445668" lon="7.63664829274817"><tag k="name" v="Sattelti" /><tag k="ele" v="2961" /><tag k="natural" v="saddle" /></node><node id="-587" version="1" lat="46.77825461044098" lon="8.099613803063864"><tag k="name" v="Teiffengrad" /><tag k="ele" v="1858" /><tag k="natural" v="saddle" /></node><node id="-588" version="1" lat="46.4163467370284" lon="9.042699491011513"><tag k="name" v="Sella" /><tag k="ele" v="2006" /><tag k="natural" v="saddle" /></node><node id="-589" version="1" lat="46.317489892416084" lon="9.276543747490805"><tag k="name" v="Senda de Padion" /><tag k="ele" v="2318" /><tag k="natural" v="saddle" /></node><node id="-590" version="1" lat="46.622505524813526" lon="9.634211761628363"><tag k="name" v="Furcletta Dafora Soura" /><tag k="ele" v="2642" /><tag k="natural" v="saddle" /></node><node id="-591" version="1" lat="47.025364055030444" lon="8.704802571020519"><tag k="name" v="Stäglerenegg" /><tag k="ele" v="1461" /><tag k="natural" v="saddle" /></node><node id="-592" version="1" lat="46.52640660631128" lon="8.22028275859487"><tag k="name" v="Talschienpass" /><tag k="ele" v="2929" /><tag k="natural" v="saddle" /></node><node id="-593" version="1" lat="46.741193774373485" lon="8.83070126996552"><tag k="name" v="Fuorcla Brit" /><tag k="ele" v="2751" /><tag k="natural" v="saddle" /></node><node id="-594" version="1" lat="46.33291294746256" lon="8.743557890479943"><tag k="name" v="Ciòssa" /><tag k="ele" v="2373" /><tag k="natural" v="saddle" /></node><node id="-595" version="1" lat="46.552397678647104" lon="9.732436750214772"><tag k="name" v="Fuorcla da Bever" /><tag k="ele" v="2947" /><tag k="natural" v="saddle" /></node><node id="-596" version="1" lat="46.82266274545568" lon="10.24394425544325"><tag k="name" v="Fuorcla Clünas" /><tag k="ele" v="2724" /><tag k="natural" v="saddle" /></node><node id="-597" version="1" lat="46.639294012470394" lon="9.241873051932272"><tag k="name" v="Rinderpirglückli" /><tag k="ele" v="2586" /><tag k="natural" v="saddle" /></node><node id="-598" version="1" lat="46.33617342369802" lon="8.85700725464085"><tag k="name" v="Bocchetta della Gana" /><tag k="ele" v="2209" /><tag k="natural" v="saddle" /></node><node id="-599" version="1" lat="46.84721986914996" lon="9.039752662037225"><tag k="name" v="Muttenlücke" /><tag k="ele" v="2853" /><tag k="natural" v="saddle" /></node><node id="-600" version="1" lat="46.586331886399016" lon="8.209326688911904"><tag k="name" v="Hubellücke" /><tag k="ele" v="3167" /><tag k="natural" v="saddle" /></node><node id="-601" version="1" lat="46.27857729708866" lon="8.904735626053716"><tag k="name" v="Bocchetta di Precastello" /><tag k="ele" v="2226" /><tag k="natural" v="saddle" /></node><node id="-602" version="1" lat="47.15275336609493" lon="8.647523916838932"><tag k="name" v="Gottschalkenberg" /><tag k="ele" v="1162" /><tag k="natural" v="saddle" /></node><node id="-603" version="1" lat="46.75297064493266" lon="8.438219588164342"><tag k="name" v="Obertaljoch" /><tag k="ele" v="2943" /><tag k="natural" v="saddle" /></node><node id="-604" version="1" lat="47.05773508049173" lon="9.594789109545651"><tag k="name" v="Ijesfürggli" /><tag k="ele" v="2348" /><tag k="natural" v="saddle" /></node><node id="-605" version="1" lat="46.9789267174541" lon="10.34053143873778"><tag k="name" v="Ausser Viderjoch" /><tag k="ele" v="2730" /><tag k="natural" v="saddle" /></node><node id="-606" version="1" lat="46.60363261437827" lon="8.042048642583191"><tag k="name" v="Undre Sattel" /><tag k="ele" v="1940" /><tag k="natural" v="saddle" /></node><node id="-607" version="1" lat="46.16342239833549" lon="6.959569459370209"><tag k="name" v="Col des Orgières" /><tag k="ele" v="2485" /><tag k="natural" v="saddle" /></node><node id="-608" version="1" lat="46.280771781015716" lon="9.058503531680076"><tag k="name" v="Passo di Mem" /><tag k="ele" v="2192" /><tag k="natural" v="saddle" /></node><node id="-609" version="1" lat="46.29695203411879" lon="8.827505804136376"><tag k="name" v="Bocchetta di Cremenzè" /><tag k="ele" v="2143" /><tag k="natural" v="saddle" /></node><node id="-610" version="1" lat="46.638382093308294" lon="8.420022250114545"><tag k="name" v="Dammapass" /><tag k="ele" v="3503" /><tag k="natural" v="saddle" /></node><node id="-611" version="1" lat="45.95155369650179" lon="7.702876826499042"><tag k="name" v="Furggsattel" /><tag k="ele" v="3348" /><tag k="natural" v="saddle" /></node><node id="-612" version="1" lat="46.36742974884952" lon="7.706428038483163"><tag k="name" v="Faldumpass" /><tag k="ele" v="2640" /><tag k="natural" v="saddle" /></node><node id="-613" version="1" lat="46.73581016592156" lon="10.254546019431928"><tag k="name" v="Fuorcla da Trigl" /><tag k="ele" v="2769" /><tag k="natural" v="saddle" /></node><node id="-614" version="1" lat="46.54657121098672" lon="9.720554964099971"><tag k="name" v="Fuorcla Laviner" /><tag k="ele" v="3002" /><tag k="natural" v="saddle" /></node><node id="-615" version="1" lat="46.34878406654703" lon="9.685303394488235"><tag k="name" v="Furcela dal Largh" /><tag k="ele" v="2954" /><tag k="natural" v="saddle" /></node><node id="-616" version="1" lat="46.14178365516894" lon="7.375895315523799"><tag k="name" v="Pas de la Lé" /><tag k="ele" v="2172" /><tag k="natural" v="saddle" /></node><node id="-617" version="1" lat="46.78033381997601" lon="9.594363073341166"><tag k="name" v="Farurfurgga" /><tag k="ele" v="2430" /><tag k="natural" v="saddle" /></node><node id="-618" version="1" lat="46.30392768589716" lon="9.670022622665474"><tag k="name" v="Bocchetta dal Castel" /><tag k="ele" v="3105" /><tag k="natural" v="saddle" /></node><node id="-619" version="1" lat="46.72197551254471" lon="9.950982929600684"><tag k="name" v="Rothorafurgga" /><tag k="ele" v="2883" /><tag k="natural" v="saddle" /></node><node id="-620" version="1" lat="46.63057254075796" lon="9.144522331328377"><tag k="name" v="Satteltilücke" /><tag k="ele" v="2762" /><tag k="natural" v="saddle" /></node><node id="-621" version="1" lat="46.57966898023529" lon="8.962219045646659"><tag k="name" v="Forca" /><tag k="ele" v="2140" /><tag k="natural" v="saddle" /></node><node id="-622" version="1" lat="46.80591030511355" lon="10.11575946513279"><tag k="name" v="Fuorcla Gronda" /><tag k="ele" v="2782" /><tag k="natural" v="saddle" /></node><node id="-623" version="1" lat="46.49896490448223" lon="8.410814375844083"><tag k="name" v="Mettlilücke" /><tag k="ele" v="2623" /><tag k="natural" v="saddle" /></node><node id="-624" version="1" lat="47.103160388991625" lon="8.53904289843267"><tag k="name" v="Chatzenbergegg" /><tag k="ele" v="953" /><tag k="natural" v="saddle" /></node><node id="-625" version="1" lat="46.62318384994399" lon="8.420438425815385"><tag k="name" v="Nördlicher Tiefensattel" /><tag k="ele" v="3330" /><tag k="natural" v="saddle" /></node><node id="-626" version="1" lat="46.97939787531932" lon="9.882872913750756"><tag k="name" v="Uf der Breita Furgga" /><tag k="ele" v="2425" /><tag k="natural" v="saddle" /></node><node id="-627" version="1" lat="46.35140539924262" lon="7.490996672621404"><tag k="name" v="Col de l'Arpochey" /><tag k="ele" v="2490" /><tag k="natural" v="saddle" /></node><node id="-628" version="1" lat="46.138765086876774" lon="7.53576368765367"><tag k="name" v="Basset de Levron" /><tag k="ele" v="2898" /><tag k="natural" v="saddle" /></node><node id="-629" version="1" lat="47.35734956941603" lon="7.867032947442468"><tag k="name" v="Rumpelhöchi" /><tag k="ele" v="679" /><tag k="natural" v="saddle" /></node><node id="-630" version="1" lat="46.755535699829586" lon="8.444235949939223"><tag k="name" v="Lücke" /><tag k="ele" v="2789" /><tag k="natural" v="saddle" /></node><node id="-631" version="1" lat="46.10262601200259" lon="7.442746478070947"><tag k="name" v="Pas d'Arpilles" /><tag k="ele" v="2435" /><tag k="natural" v="saddle" /></node><node id="-632" version="1" lat="45.94679505146978" lon="7.269532954047089"><tag k="name" v="Col du Moine" /><tag k="ele" v="3417" /><tag k="natural" v="saddle" /></node><node id="-633" version="1" lat="46.21383675595018" lon="7.110931926411405"><tag k="name" v="Trou à Chamorel" /><tag k="ele" v="2641" /><tag k="natural" v="saddle" /></node><node id="-634" version="1" lat="46.708621568817364" lon="10.18389215576965"><tag k="name" v="Fuorcla Laschadurella" /><tag k="ele" v="2587" /><tag k="natural" v="saddle" /></node><node id="-635" version="1" lat="46.26852377419646" lon="7.1810874281722965"><tag k="name" v="Col Pegnat" /><tag k="ele" v="2517" /><tag k="natural" v="saddle" /></node><node id="-636" version="1" lat="46.24514479892971" lon="7.659462752139075"><tag k="name" v="Borterlicke" /><tag k="ele" v="2883" /><tag k="natural" v="saddle" /></node><node id="-637" version="1" lat="46.64285504542458" lon="8.159622748770154"><tag k="name" v="Ränfenjoch" /><tag k="ele" v="3035" /><tag k="natural" v="saddle" /></node><node id="-638" version="1" lat="47.151226012773776" lon="9.261010580715984"><tag k="name" v="Rappenloch" /><tag k="ele" v="2045" /><tag k="natural" v="saddle" /></node><node id="-639" version="1" lat="46.031287379411054" lon="7.408143424582551"><tag k="name" v="Pas du Chat" /><tag k="ele" v="2479" /><tag k="natural" v="saddle" /></node><node id="-640" version="1" lat="46.738010492022106" lon="10.11915605503178"><tag k="name" v="Fuorcla d'Arpiglias" /><tag k="ele" v="2797" /><tag k="natural" v="saddle" /></node><node id="-641" version="1" lat="46.482349928994694" lon="7.8887893438987815"><tag k="name" v="Breithornjoch" /><tag k="ele" v="3338" /><tag k="natural" v="saddle" /></node><node id="-642" version="1" lat="46.34951845270987" lon="8.692819022225892"><tag k="name" v="Passo di Chènt" /><tag k="ele" v="2223" /><tag k="natural" v="saddle" /></node><node id="-643" version="1" lat="46.148127587350125" lon="7.547765029655759"><tag k="name" v="Basset de Lona" /><tag k="ele" v="2791" /><tag k="natural" v="saddle" /></node><node id="-644" version="1" lat="46.549856300403064" lon="8.676609534974773"><tag k="name" v="Bassa della Fontana del Bò" /><tag k="ele" v="2298" /><tag k="natural" v="saddle" /></node><node id="-645" version="1" lat="46.54575297804724" lon="7.292408700721062"><tag k="name" v="Luegle" /><tag k="ele" v="1839" /><tag k="natural" v="saddle" /></node><node id="-646" version="1" lat="46.940959797804844" lon="9.404406563028562"><tag k="name" v="Furggla" /><tag k="ele" v="2573" /><tag k="natural" v="saddle" /></node><node id="-647" version="1" lat="46.9121162653141" lon="9.852391167205251"><tag k="name" v="Chlei Fürggli" /><tag k="ele" v="2085" /><tag k="natural" v="saddle" /></node><node id="-648" version="1" lat="46.600157990649826" lon="10.10060573982491"><tag k="name" v="Fuorcla Val Mela" /><tag k="ele" v="2920" /><tag k="natural" v="saddle" /></node><node id="-649" version="1" lat="46.44437751939091" lon="8.54794552061354"><tag k="name" v="Bocchetta del Mottone" /><tag k="ele" v="2699" /><tag k="natural" v="saddle" /></node><node id="-650" version="1" lat="46.049310688317235" lon="7.677251641806452"><tag k="name" v="Triftjoch" /><tag k="ele" v="3527" /><tag k="natural" v="saddle" /></node><node id="-651" version="1" lat="46.25037101418371" lon="7.664164946159283"><tag k="name" v="Brunnetlicku" /><tag k="ele" v="2821" /><tag k="natural" v="saddle" /></node><node id="-652" version="1" lat="46.45780220030461" lon="7.797247621427209"><tag k="name" v="Birgsattel" /><tag k="ele" v="3112" /><tag k="natural" v="saddle" /></node><node id="-653" version="1" lat="46.57860264353202" lon="8.67561033980489"><tag k="name" v="Passo di Froda" /><tag k="ele" v="2677" /><tag k="natural" v="saddle" /></node><node id="-654" version="1" lat="46.57407574707915" lon="10.273312676648079"><tag k="name" v="Fuorcla Murtaröl" /><tag k="ele" v="2899" /><tag k="natural" v="saddle" /></node><node id="-655" version="1" lat="47.01833034626299" lon="9.297740382894698"><tag k="name" v="Chläuifurggla" /><tag k="ele" v="2199" /><tag k="natural" v="saddle" /></node><node id="-656" version="1" lat="46.47544579961877" lon="8.867997103844099"><tag k="name" v="Bassa di Nara" /><tag k="ele" v="2122" /><tag k="natural" v="saddle" /></node><node id="-657" version="1" lat="46.635980988456915" lon="8.53252205423386"><tag k="name" v="Spitzberglücke" /><tag k="ele" v="2783" /><tag k="natural" v="saddle" /></node><node id="-658" version="1" lat="46.68896563747932" lon="7.459435058858135"><tag k="name" v="Schwidenegg" /><tag k="ele" v="1852" /><tag k="natural" v="saddle" /></node><node id="-659" version="1" lat="46.21708273079992" lon="6.8144576426318935"><tag k="name" v="Pas du Blattin" /><tag k="ele" v="2049" /><tag k="natural" v="saddle" /></node><node id="-660" version="1" lat="46.97929660710686" lon="9.606179881320562"><tag k="name" v="Furgga" /><tag k="ele" v="995" /><tag k="natural" v="saddle" /></node><node id="-661" version="1" lat="46.650618943796196" lon="7.3603510428665855"><tag k="name" v="Chüeharnisch" /><tag k="ele" v="1826" /><tag k="natural" v="saddle" /></node><node id="-662" version="1" lat="46.64036782594345" lon="8.656124757562402"><tag k="name" v="Martschallücke" /><tag k="ele" v="2684" /><tag k="natural" v="saddle" /></node><node id="-663" version="1" lat="45.94460510134576" lon="7.0380323064522425"><tag k="name" v="Col d'Argentière" /><tag k="ele" v="3544" /><tag k="natural" v="saddle" /></node><node id="-664" version="1" lat="46.91476811268911" lon="9.97284199198897"><tag k="name" v="Kunterbandfurgga" /><tag k="ele" v="2617" /><tag k="natural" v="saddle" /></node><node id="-665" version="1" lat="46.84578051146677" lon="9.725479350618105"><tag k="name" v="Wit Furgga" /><tag k="ele" v="2321" /><tag k="natural" v="saddle" /></node><node id="-666" version="1" lat="46.292606749082275" lon="8.907294404926203"><tag k="name" v="Forcarella di Lodrino" /><tag k="ele" v="2218" /><tag k="natural" v="saddle" /></node><node id="-667" version="1" lat="46.36877877509544" lon="9.818063934360136"><tag k="name" v="Fuorcla dal Chapütschin" /><tag k="ele" v="3220" /><tag k="natural" v="saddle" /></node><node id="-668" version="1" lat="46.3628261483324" lon="8.251689305859284"><tag k="name" v="Chollerjoch" /><tag k="ele" v="2689" /><tag k="natural" v="saddle" /></node><node id="-669" version="1" lat="45.94378484311423" lon="7.7697865644445425"><tag k="name" v="Chli Triftjisattel" /><tag k="ele" v="3489" /><tag k="natural" v="saddle" /></node><node id="-670" version="1" lat="46.670329791522725" lon="9.773452264758046"><tag k="name" v="Büelefurgga" /><tag k="ele" v="2649" /><tag k="natural" v="saddle" /></node><node id="-671" version="1" lat="46.62918788019187" lon="8.506057485892702"><tag k="name" v="Zandlücke" /><tag k="ele" v="2827" /><tag k="natural" v="saddle" /></node><node id="-672" version="1" lat="46.0262829096655" lon="7.037560838729598"><tag k="name" v="Col de la Ly" /><tag k="ele" v="2702" /><tag k="natural" v="saddle" /></node><node id="-673" version="1" lat="46.6166646214827" lon="9.668949213565622"><tag k="name" v="Fuorcla da Gravaratschas" /><tag k="ele" v="2759" /><tag k="natural" v="saddle" /></node><node id="-674" version="1" lat="46.74154606129512" lon="8.812021993570783"><tag k="name" v="Fuorcla da Cavardiras" /><tag k="ele" v="2624" /><tag k="natural" v="saddle" /></node><node id="-675" version="1" lat="46.641310860635514" lon="8.547925605873393"><tag k="name" v="Lochstocklücke" /><tag k="ele" v="2571" /><tag k="natural" v="saddle" /></node><node id="-676" version="1" lat="46.55419822339236" lon="9.679614745596348"><tag k="name" v="Fuorcla digls Tellers" /><tag k="ele" v="2869" /><tag k="natural" v="saddle" /></node><node id="-677" version="1" lat="46.74450905930784" lon="8.440863380840819"><tag k="name" v="Heuwbergjoch" /><tag k="ele" v="2680" /><tag k="natural" v="saddle" /></node><node id="-678" version="1" lat="45.93356479477673" lon="7.709635807524369"><tag k="name" v="Col d'Aventine" /><tag k="ele" v="3443" /><tag k="natural" v="saddle" /></node><node id="-679" version="1" lat="46.69164081140934" lon="8.405144546851115"><tag k="name" v="Tierberglimi" /><tag k="ele" v="3192" /><tag k="natural" v="saddle" /></node><node id="-680" version="1" lat="46.642060063912886" lon="9.0238878149633"><tag k="name" v="Fuorcla Cotschna" /><tag k="ele" v="2585" /><tag k="natural" v="saddle" /></node><node id="-681" version="1" lat="46.5531396673327" lon="8.081362165652248"><tag k="name" v="Fiescherjoch" /><tag k="ele" v="3696" /><tag k="natural" v="saddle" /></node><node id="-682" version="1" lat="46.6736865436173" lon="8.054828058168617"><tag k="name" v="Oberjoch" /><tag k="ele" v="2481" /><tag k="natural" v="saddle" /></node><node id="-683" version="1" lat="46.43005727200598" lon="8.898927889726796"><tag k="name" v="Passo dei Laghetti" /><tag k="ele" v="2129" /><tag k="natural" v="saddle" /></node><node id="-684" version="1" lat="46.45307366216875" lon="8.33893567110251"><tag k="name" v="Hinneri Sulzlicke" /><tag k="ele" v="2796" /><tag k="natural" v="saddle" /></node><node id="-685" version="1" lat="46.80157501575065" lon="8.10828377791627"><tag k="name" v="Chringe" /><tag k="ele" v="1914" /><tag k="natural" v="saddle" /></node><node id="-686" version="1" lat="46.63709570817646" lon="10.143052913960316"><tag k="name" v="Fuorcla da la Föglia" /><tag k="ele" v="2673" /><tag k="natural" v="saddle" /></node><node id="-687" version="1" lat="46.69061878678344" lon="8.688100289335745"><tag k="name" v="Fuorcla da Crispalt" /><tag k="ele" v="2944" /><tag k="natural" v="saddle" /></node><node id="-688" version="1" lat="46.58141563550896" lon="9.495075985790956"><tag k="name" v="Pass da Surcarungas" /><tag k="ele" v="2639" /><tag k="natural" v="saddle" /></node><node id="-689" version="1" lat="46.23819120135217" lon="8.909404842260134"><tag k="name" v="Bocchetta di Rognoi" /><tag k="ele" v="2219" /><tag k="natural" v="saddle" /></node><node id="-690" version="1" lat="46.82827781609747" lon="10.159531701808081"><tag k="name" v="Selletta" /><tag k="ele" v="2848" /><tag k="natural" v="saddle" /></node><node id="-691" version="1" lat="46.32109435159448" lon="9.034109009423315"><tag k="name" v="Bocchetta del Mottale" /><tag k="ele" v="2089" /><tag k="natural" v="saddle" /></node><node id="-692" version="1" lat="46.79985402639778" lon="9.947250765306642"><tag k="name" v="Isenfürggli" /><tag k="ele" v="2766" /><tag k="natural" v="saddle" /></node><node id="-693" version="1" lat="46.91248247739114" lon="8.342661518660753"><tag k="name" v="Ächerli" /><tag k="ele" v="1395" /><tag k="natural" v="saddle" /></node><node id="-694" version="1" lat="46.58762792684681" lon="9.497883562074431"><tag k="name" v="Pass Colmet" /><tag k="ele" v="2650" /><tag k="natural" v="saddle" /></node><node id="-695" version="1" lat="47.172877932039974" lon="6.860148816078519"><tag k="name" v="Haut de la Montée" /><tag k="ele" v="828" /><tag k="natural" v="saddle" /></node><node id="-696" version="1" lat="46.58582157744846" lon="8.222145605387881"><tag k="name" v="Hiendertelltijoch" /><tag k="ele" v="3093" /><tag k="natural" v="saddle" /></node><node id="-697" version="1" lat="46.68789012185272" lon="9.902849095228094"><tag k="name" v="Chüealp Furgga" /><tag k="ele" v="2865" /><tag k="natural" v="saddle" /></node><node id="-698" version="1" lat="46.49173146511477" lon="8.629194695535723"><tag k="name" v="Bocchetta del Corno" /><tag k="ele" v="2431" /><tag k="natural" v="saddle" /></node><node id="-699" version="1" lat="46.78296596509776" lon="8.523757530603188"><tag k="name" v="Spannortjoch" /><tag k="ele" v="2895" /><tag k="natural" v="saddle" /></node><node id="-700" version="1" lat="46.5422040003044" lon="9.1271845299557"><tag k="name" v="Fanelllücke" /><tag k="ele" v="2869" /><tag k="natural" v="saddle" /></node><node id="-701" version="1" lat="46.582780266385335" lon="9.283811142179966"><tag k="name" v="Chrachalücke" /><tag k="ele" v="2635" /><tag k="natural" v="saddle" /></node><node id="-702" version="1" lat="46.46559839119262" lon="7.958690784134146"><tag k="name" v="Sattellicka" /><tag k="ele" v="3374" /><tag k="natural" v="saddle" /></node><node id="-703" version="1" lat="46.5359410544933" lon="9.499281240932094"><tag k="name" v="Furcla Cotschna" /><tag k="ele" v="2515" /><tag k="natural" v="saddle" /></node><node id="-704" version="1" lat="45.948980615393296" lon="7.41351653199993"><tag k="name" v="Col Sud des Portons" /><tag k="ele" v="3179" /><tag k="natural" v="saddle" /></node><node id="-705" version="1" lat="46.9243479545292" lon="10.300283004761669"><tag k="name" v="Fuorcla Roz" /><tag k="ele" v="2792" /><tag k="natural" v="saddle" /></node><node id="-706" version="1" lat="46.616306881306876" lon="8.787401093811393"><tag k="name" v="Fuorcla Davos Glatschers" /><tag k="ele" v="2897" /><tag k="natural" v="saddle" /></node><node id="-707" version="1" lat="47.25252501498925" lon="9.439357358324704"><tag k="name" v="Sattel" /><tag k="ele" v="1816" /><tag k="natural" v="saddle" /></node><node id="-708" version="1" lat="46.53910272915242" lon="9.154626531810505"><tag k="name" v="Chilchalplücka" /><tag k="ele" v="2807" /><tag k="natural" v="saddle" /></node><node id="-709" version="1" lat="46.71328437460837" lon="8.447882656998075"><tag k="name" v="Chalchtallücke" /><tag k="ele" v="2759" /><tag k="natural" v="saddle" /></node><node id="-710" version="1" lat="46.51970963294994" lon="9.787150585035384"><tag k="name" v="Fuorcla Persa" /><tag k="ele" v="2925" /><tag k="natural" v="saddle" /></node><node id="-711" version="1" lat="46.47448803783952" lon="9.122287499407596"><tag k="name" v="Pass de Mucia" /><tag k="ele" v="2782" /><tag k="natural" v="saddle" /></node><node id="-712" version="1" lat="46.89969519211262" lon="10.001438586795645"><tag k="name" v="Hüenertällijoch" /><tag k="ele" v="2695" /><tag k="natural" v="saddle" /></node><node id="-713" version="1" lat="46.69060772168198" lon="9.98877413135129"><tag k="name" v="Fuorcla Barlas-ch" /><tag k="ele" v="3014" /><tag k="natural" v="saddle" /></node><node id="-714" version="1" lat="46.12076972930915" lon="7.731558622017807"><tag k="name" v="Bisjoch" /><tag k="ele" v="3520" /><tag k="natural" v="saddle" /></node><node id="-715" version="1" lat="47.789762486006964" lon="8.592433528332323"><tag k="name" v="Hengschtsattel" /><tag k="ele" v="735" /><tag k="natural" v="saddle" /></node><node id="-716" version="1" lat="46.22933742044068" lon="7.665063226510469"><tag k="name" v="Borterpass" /><tag k="ele" v="2840" /><tag k="natural" v="saddle" /></node><node id="-717" version="1" lat="46.65786071304397" lon="8.933951988448705"><tag k="name" v="Fuorcla da Stavelatsch" /><tag k="ele" v="2592" /><tag k="natural" v="saddle" /></node><node id="-718" version="1" lat="46.76016501610157" lon="8.227099561812711"><tag k="name" v="Fruttli" /><tag k="ele" v="1929" /><tag k="natural" v="saddle" /></node><node id="-719" version="1" lat="46.12684234987846" lon="6.912474666727805"><tag k="name" v="Col de la Tour Salière" /><tag k="ele" v="2805" /><tag k="natural" v="saddle" /></node><node id="-720" version="1" lat="46.511187755104935" lon="9.550123321452013"><tag k="name" v="Fuorcla Cagniel" /><tag k="ele" v="2748" /><tag k="natural" v="saddle" /></node><node id="-721" version="1" lat="46.63363543279519" lon="9.121904262902548"><tag k="name" v="Fuorcla Lischeias" /><tag k="ele" v="2619" /><tag k="natural" v="saddle" /></node><node id="-722" version="1" lat="46.96948268152713" lon="8.155108299562292"><tag k="name" v="Risetenegg" /><tag k="ele" v="1404" /><tag k="natural" v="saddle" /></node><node id="-723" version="1" lat="46.71772339474704" lon="9.821197477563537"><tag k="name" v="Leidbachfurgga" /><tag k="ele" v="2728" /><tag k="natural" v="saddle" /></node><node id="-724" version="1" lat="46.532135545713864" lon="9.825285256903834"><tag k="name" v="Fuorcla Padella" /><tag k="ele" v="2737" /><tag k="natural" v="saddle" /></node><node id="-725" version="1" lat="46.67954392928383" lon="8.061247071024882"><tag k="name" v="Chlyni Chrinne" /><tag k="ele" v="2549" /><tag k="natural" v="saddle" /></node><node id="-726" version="1" lat="46.625238514844696" lon="8.730962108870342"><tag k="name" v="Fuorcla da Tuma" /><tag k="ele" v="2580" /><tag k="natural" v="saddle" /></node><node id="-727" version="1" lat="46.31683806805977" lon="6.825929285460874"><tag k="name" v="Lanche du Brêlon" /><tag k="ele" v="1815" /><tag k="natural" v="saddle" /></node><node id="-728" version="1" lat="46.77339861646964" lon="8.412449939878105"><tag k="name" v="Vorderes Titlisjoch" /><tag k="ele" v="2698" /><tag k="natural" v="saddle" /></node></osm>